{
"type": "FeatureCollection",
"name": "county_urban",
"crs": { "type": "name", "properties": { "name": "urn:ogc:def:crs:OGC:1.3:CRS84" } },
"features": [
{ "type": "Feature", "properties": { "RC8": -1.1818530277227051, "RC4": -0.6059188770340862, "COUNTYFIPS": "045", "SOVI_SCORE": 21.31043257, "RC7": 0.20624570695876607, "RC3": 0.4152440786632296, "NAME.y": "Weston County, Wyoming", "RC2": -0.64270010975358838, "state_name": "WYOMING", "lag_sovi": -2.4650178154765281, "RC6": 0.57146147929931257, "WFIR_EALT": 710481.920866, "RC5": 0.90897566203960323, "NAME.x": "Weston", "RC1": -0.29611523080451252, "SoVI_class": "< -1 SD", "RC9": -1.5475262491270971, "GEOID": "56045", "SoVI": -4.5408303885498844, "WFIR_RISKS": 83.746819338400002, "Ii": 1.2481337353801532, "P.Ii": 0.094920741205381881, "SOVI_RATNG": "Relatively Low", "cluster": "Not Significant", "quadrant": "Low Vulnerability & Low Wildfire Risk", "WFIR_RISKR": "Relatively Low" }, "geometry": { "type": "Polygon", "coordinates": [ [ [ -105.079281, 44.176182 ], [ -105.079797, 43.498445 ], [ -104.899941, 43.49964 ], [ -104.054855942138005, 43.503324035365402 ], [ -104.054840270387004, 44.180381720120202 ], [ -105.079281, 44.176182 ] ] ] } },
{ "type": "Feature", "properties": { "RC8": 0.32819230860620718, "RC4": 0.510374617560166, "COUNTYFIPS": "029", "SOVI_SCORE": 38.45419847, "RC7": -0.8570914589967833, "RC3": 0.29997608419607313, "NAME.y": "Park County, Wyoming", "RC2": -0.24021852950991049, "state_name": "WYOMING", "lag_sovi": -1.4046934663988746, "RC6": -0.36962101743018028, "WFIR_EALT": 555350.12050099997, "RC5": 0.26945724899823276, "NAME.x": "Park", "RC1": 0.31959241387896775, "SoVI_class": "-0.5 to 0.5 SD", "RC9": -0.18577188416954957, "GEOID": "56029", "SoVI": -0.36396750776081721, "WFIR_RISKS": 82.729007633600006, "Ii": 0.057009857625953092, "P.Ii": 0.17941207854316746, "SOVI_RATNG": "Relatively Low", "cluster": "Not Significant", "quadrant": "High Vulnerability & Low Wildfire Risk", "WFIR_RISKR": "Relatively Low" }, "geometry": { "type": "Polygon", "coordinates": [ [ [ -108.621312796748995, 45.000250837426996 ], [ -109.082849, 44.999551 ], [ -109.103228, 45.005815 ], [ -110.183221, 44.996953 ], [ -110.704476, 44.992174 ], [ -111.054556, 45.000955 ], [ -111.053610326574002, 44.666266977001101 ], [ -110.667867, 44.666291 ], [ -110.667899, 44.582792 ], [ -110.375334, 44.583016 ], [ -110.276521, 44.516648 ], [ -110.294221, 44.42824 ], [ -110.150283, 44.290016 ], [ -110.115614, 44.190402 ], [ -110.053357, 44.132628 ], [ -110.053179, 44.008022 ], [ -109.993871, 43.949557 ], [ -109.8819, 43.949076 ], [ -109.7899, 43.803252 ], [ -109.672482, 43.868096 ], [ -109.641808, 43.922785 ], [ -109.566943, 43.95482 ], [ -109.442361, 43.930434 ], [ -109.312949, 43.813293 ], [ -109.093603, 43.817619 ], [ -109.092878, 43.904474 ], [ -108.912783, 43.904754 ], [ -108.915985, 43.990854 ], [ -108.791779, 43.991053 ], [ -108.792277, 44.079616 ], [ -108.550758, 44.079403 ], [ -108.550562, 44.168455 ], [ -108.573797, 44.168468 ], [ -108.57342, 44.520811 ], [ -108.592494, 44.52093 ], [ -108.592296, 44.871444 ], [ -108.621312796748995, 45.000250837426996 ] ] ] } },
{ "type": "Feature", "properties": { "RC8": -0.99652202805723622, "RC4": 0.52224294803628224, "COUNTYFIPS": "013", "SOVI_SCORE": 52.76717557, "RC7": -0.73852662892311249, "RC3": -0.42351518912947195, "NAME.y": "Fremont County, Wyoming", "RC2": 1.1634506012576138, "state_name": "WYOMING", "lag_sovi": -2.0964846737389613, "RC6": -0.12919615602172416, "WFIR_EALT": 1871360.9647, "RC5": 0.11258848748414677, "NAME.x": "Fremont", "RC1": -0.014694602304456864, "SoVI_class": "-0.5 to 0.5 SD", "RC9": 0.61178333211151903, "GEOID": "56013", "SoVI": 0.17021530613762864, "WFIR_RISKS": 92.557251908400005, "Ii": -0.039792028704557197, "P.Ii": 0.04536133980913426, "SOVI_RATNG": "Relatively Moderate", "cluster": "High-Low", "quadrant": "High Vulnerability & High Wildfire Risk", "WFIR_RISKR": "Relatively Moderate" }, "geometry": { "type": "Polygon", "coordinates": [ [ [ -110.053179, 44.008022 ], [ -110.05157, 43.464783 ], [ -109.754717, 43.4632 ], [ -109.754462, 43.365905 ], [ -109.694942, 43.366152 ], [ -109.692716, 43.26503 ], [ -109.620634, 43.125602 ], [ -109.502407, 43.010511 ], [ -109.346779, 42.920164 ], [ -109.217449, 42.760048 ], [ -109.072851, 42.693514 ], [ -109.069477, 42.433477 ], [ -109.043864, 42.263684 ], [ -108.125032, 42.262516 ], [ -107.522722, 42.261756 ], [ -107.522923, 42.434356 ], [ -107.542025, 42.434356 ], [ -107.543526, 42.781358 ], [ -107.501425, 42.781458 ], [ -107.502327, 43.12806 ], [ -107.516728, 43.12796 ], [ -107.517031, 43.472659 ], [ -107.534897, 43.501362 ], [ -107.595105, 43.501397 ], [ -107.595137, 43.472279 ], [ -108.156285, 43.470628 ], [ -108.337861, 43.459765 ], [ -108.695072, 43.532255 ], [ -108.694672, 43.575755 ], [ -108.934141, 43.619163 ], [ -109.171638, 43.619764 ], [ -109.171448, 43.699198 ], [ -109.312949, 43.813293 ], [ -109.442361, 43.930434 ], [ -109.566943, 43.95482 ], [ -109.641808, 43.922785 ], [ -109.672482, 43.868096 ], [ -109.7899, 43.803252 ], [ -109.8819, 43.949076 ], [ -109.993871, 43.949557 ], [ -110.053179, 44.008022 ] ] ] } },
{ "type": "Feature", "properties": { "RC8": -0.92046047589594759, "RC4": 0.52425505696939489, "COUNTYFIPS": "003", "SOVI_SCORE": 52.60814249, "RC7": 0.030269447654338491, "RC3": -0.42425510773993202, "NAME.y": "Big Horn County, Wyoming", "RC2": -0.94002302945408778, "state_name": "WYOMING", "lag_sovi": -0.66166522768377412, "RC6": -0.4710856210733253, "WFIR_EALT": 80910.264190700007, "RC5": 1.0134877583884196, "NAME.x": "Big Horn", "RC1": -0.69392842003727762, "SoVI_class": "-0.5 to 0.5 SD", "RC9": 0.95883526405358876, "GEOID": "56003", "SoVI": -0.61985256169046199, "WFIR_RISKS": 61.354961832100003, "Ii": 0.045733294868064579, "P.Ii": 0.58436487360576994, "SOVI_RATNG": "Relatively Moderate", "cluster": "Not Significant", "quadrant": "High Vulnerability & Low Wildfire Risk", "WFIR_RISKR": "Very Low" }, "geometry": { "type": "Polygon", "coordinates": [ [ [ -108.621312796748995, 45.000250837426996 ], [ -108.592296, 44.871444 ], [ -108.592494, 44.52093 ], [ -108.57342, 44.520811 ], [ -108.573797, 44.168468 ], [ -108.550562, 44.168455 ], [ -107.722019, 44.167877 ], [ -107.146808, 44.165666 ], [ -107.145001, 44.324004 ], [ -107.202038, 44.446305 ], [ -107.369621, 44.559837 ], [ -107.392902, 44.595963 ], [ -107.528157, 44.634782 ], [ -107.549172, 44.678793 ], [ -107.671158, 44.680248 ], [ -107.741543, 44.714352 ], [ -107.865018, 44.873639 ], [ -107.911518281902005, 45.000672625471502 ], [ -108.621312796748995, 45.000250837426996 ] ] ] } },
{ "type": "Feature", "properties": { "RC8": 0.38963452506030943, "RC4": -0.36838499737885194, "COUNTYFIPS": "007", "SOVI_SCORE": 47.83715013, "RC7": -0.26511321561540202, "RC3": -0.19347617257751737, "NAME.y": "Carbon County, Wyoming", "RC2": -0.08891770717987911, "state_name": "WYOMING", "lag_sovi": -2.0745651574622279, "RC6": 1.250769399978819, "WFIR_EALT": 456652.05329700001, "RC5": -0.1114675042332906, "NAME.x": "Carbon", "RC1": -0.47265107724209721, "SoVI_class": "-0.5 to 0.5 SD", "RC9": 0.18375168177241613, "GEOID": "56007", "SoVI": -1.0091567044223559, "WFIR_RISKS": 81.902035623399996, "Ii": 0.23344870468783449, "P.Ii": 0.047169959814938503, "SOVI_RATNG": "Relatively Moderate", "cluster": "Low-Low", "quadrant": "High Vulnerability & Low Wildfire Risk", "WFIR_RISKR": "Relatively Low" }, "geometry": { "type": "Polygon", "coordinates": [ [ [ -107.522722, 42.261756 ], [ -107.503821, 42.087957 ], [ -107.50972, 41.657452 ], [ -107.929736, 41.659596 ], [ -107.917104, 41.398499 ], [ -107.918421, 41.002036 ], [ -106.857773, 41.002663 ], [ -106.321165, 40.999123 ], [ -106.322885, 41.395141 ], [ -106.068406, 41.395028 ], [ -106.074919, 42.086649 ], [ -106.073403, 42.433236 ], [ -106.075852, 42.433218 ], [ -106.624983, 42.430488 ], [ -107.522923, 42.434356 ], [ -107.522722, 42.261756 ] ] ] } },
{ "type": "Feature", "properties": { "RC8": -1.3796713845391619, "RC4": 0.30735612731004025, "COUNTYFIPS": "035", "SOVI_SCORE": 27.54452926, "RC7": -0.99886697549663395, "RC3": 0.068911237529583821, "NAME.y": "Sublette County, Wyoming", "RC2": -0.67960191605212539, "state_name": "WYOMING", "lag_sovi": -2.1530873582375958, "RC6": 1.4986902763300969, "WFIR_EALT": 1053270.8830800001, "RC5": -0.83042600411414591, "NAME.x": "Sublette", "RC1": 0.28672844419669685, "SoVI_class": "< -1 SD", "RC9": -0.68257411275898106, "GEOID": "56035", "SoVI": -4.3194397404199263, "WFIR_RISKS": 87.722646310399995, "Ii": 1.0370384281883316, "P.Ii": 0.1445810998330643, "SOVI_RATNG": "Relatively Low", "cluster": "Not Significant", "quadrant": "Low Vulnerability & High Wildfire Risk", "WFIR_RISKR": "Relatively Low" }, "geometry": { "type": "Polygon", "coordinates": [ [ [ -110.578656, 43.235224 ], [ -110.587993, 43.126147 ], [ -110.59013, 42.448494 ], [ -110.543329, 42.448536 ], [ -110.541634, 42.277491 ], [ -110.053708, 42.270744 ], [ -109.500686, 42.263559 ], [ -109.043864, 42.263684 ], [ -109.069477, 42.433477 ], [ -109.072851, 42.693514 ], [ -109.217449, 42.760048 ], [ -109.346779, 42.920164 ], [ -109.502407, 43.010511 ], [ -109.620634, 43.125602 ], [ -109.692716, 43.26503 ], [ -109.694942, 43.366152 ], [ -109.754462, 43.365905 ], [ -109.754717, 43.4632 ], [ -110.05157, 43.464783 ], [ -110.05731, 43.377768 ], [ -110.344218, 43.377918 ], [ -110.343959, 43.291165 ], [ -110.57838, 43.29164 ], [ -110.578656, 43.235224 ] ] ] } },
{ "type": "Feature", "properties": { "RC8": 0.0027669147807288241, "RC4": 0.29749061571096386, "COUNTYFIPS": "025", "SOVI_SCORE": 20.51526718, "RC7": -0.99354880958074521, "RC3": -0.63814563097842536, "NAME.y": "Natrona County, Wyoming", "RC2": 0.4089262400771746, "state_name": "WYOMING", "lag_sovi": -1.0273124018255213, "RC6": 0.42989919851684422, "WFIR_EALT": 2657673.8024300002, "RC5": 0.13323515325898527, "NAME.x": "Natrona", "RC1": 0.45746010041722546, "SoVI_class": "-1 to -0.5 SD", "RC9": 0.10244227811540441, "GEOID": "56025", "SoVI": -1.840662844067954, "WFIR_RISKS": 93.034351145000002, "Ii": 0.21085434547960949, "P.Ii": 0.43732299453773943, "SOVI_RATNG": "Relatively Low", "cluster": "Not Significant", "quadrant": "Low Vulnerability & High Wildfire Risk", "WFIR_RISKR": "Relatively Moderate" }, "geometry": { "type": "Polygon", "coordinates": [ [ [ -107.534897, 43.501362 ], [ -107.517031, 43.472659 ], [ -107.516728, 43.12796 ], [ -107.502327, 43.12806 ], [ -107.501425, 42.781458 ], [ -107.543526, 42.781358 ], [ -107.542025, 42.434356 ], [ -107.522923, 42.434356 ], [ -106.624983, 42.430488 ], [ -106.075852, 42.433218 ], [ -106.072669, 42.778165 ], [ -106.078068, 43.494471 ], [ -106.516629, 43.491786 ], [ -107.11092, 43.492362 ], [ -107.110734, 43.500286 ], [ -107.534897, 43.501362 ] ] ] } },
{ "type": "Feature", "properties": { "RC8": -0.21114147214640763, "RC4": 0.68115550503209732, "COUNTYFIPS": "009", "SOVI_SCORE": 42.43002545, "RC7": -0.63700038912557921, "RC3": -0.35301158804816413, "NAME.y": "Converse County, Wyoming", "RC2": -0.18826462267790009, "state_name": "WYOMING", "lag_sovi": -2.3352602374578564, "RC6": 1.1515839503333043, "WFIR_EALT": 1525151.6817099999, "RC5": 0.27220074445695247, "NAME.x": "Converse", "RC1": 0.062584250019811133, "SoVI_class": "-1 to -0.5 SD", "RC9": 0.11159364092369226, "GEOID": "56009", "SoVI": -2.0830378708523294, "WFIR_RISKS": 91.094147582700003, "Ii": 0.54242316632167142, "P.Ii": 0.025162806024640372, "SOVI_RATNG": "Relatively Moderate", "cluster": "Low-Low", "quadrant": "Low Vulnerability & High Wildfire Risk", "WFIR_RISKR": "Relatively Moderate" }, "geometry": { "type": "Polygon", "coordinates": [ [ [ -106.078068, 43.494471 ], [ -106.072669, 42.778165 ], [ -106.075852, 42.433218 ], [ -106.073403, 42.433236 ], [ -105.556042, 42.430583 ], [ -105.614656, 42.377436 ], [ -105.613865, 42.304455 ], [ -105.375541, 42.290139 ], [ -105.332638, 42.431106 ], [ -105.28391, 42.431402 ], [ -105.286511, 42.605826 ], [ -104.892437, 42.608939 ], [ -104.89848, 42.78303 ], [ -104.899941, 43.49964 ], [ -105.079797, 43.498445 ], [ -106.017366, 43.494969 ], [ -106.078068, 43.494471 ] ] ] } },
{ "type": "Feature", "properties": { "RC8": 0.12006181819145612, "RC4": 0.29000394770734, "COUNTYFIPS": "037", "SOVI_SCORE": 19.33842239, "RC7": -0.71232536384785272, "RC3": -0.77475927804370248, "NAME.y": "Sweetwater County, Wyoming", "RC2": 0.41763203698347384, "state_name": "WYOMING", "lag_sovi": -1.8623301454404551, "RC6": 1.2411779896460038, "WFIR_EALT": 151179.71090599999, "RC5": 0.093445331853010447, "NAME.x": "Sweetwater", "RC1": -0.017209495348210358, "SoVI_class": "-1 to -0.5 SD", "RC9": -0.3071071161686092, "GEOID": "56037", "SoVI": -2.2839077813286983, "WFIR_RISKS": 66.157760814200003, "Ii": 0.47428677669501024, "P.Ii": 0.073789217558225775, "SOVI_RATNG": "Very Low", "cluster": "Not Significant", "quadrant": "Low Vulnerability & Low Wildfire Risk", "WFIR_RISKR": "Relatively Low" }, "geometry": { "type": "Polygon", "coordinates": [ [ [ -110.053708, 42.270744 ], [ -110.046408, 42.006948 ], [ -110.048, 41.578015 ], [ -110.048482511407002, 40.997554638338599 ], [ -109.534926, 40.998143 ], [ -108.884138, 41.000094 ], [ -107.918421, 41.002036 ], [ -107.917104, 41.398499 ], [ -107.929736, 41.659596 ], [ -107.50972, 41.657452 ], [ -107.503821, 42.087957 ], [ -107.522722, 42.261756 ], [ -108.125032, 42.262516 ], [ -109.043864, 42.263684 ], [ -109.500686, 42.263559 ], [ -110.053708, 42.270744 ] ] ] } },
{ "type": "Feature", "properties": { "RC8": -0.034089425487042857, "RC4": -0.5598377490157368, "COUNTYFIPS": "015", "SOVI_SCORE": 35.52798982, "RC7": -1.0207174214050363, "RC3": -0.065439576237833572, "NAME.y": "Goshen County, Wyoming", "RC2": 0.048454703049619102, "state_name": "WYOMING", "lag_sovi": -1.9887669540693669, "RC6": -0.14682370843017772, "WFIR_EALT": 217716.96826699999, "RC5": 0.49396938579962019, "NAME.x": "Goshen", "RC1": -0.48533542338762797, "SoVI_class": "-0.5 to 0.5 SD", "RC9": 0.61892069491273916, "GEOID": "56015", "SoVI": -0.87451902816510563, "WFIR_RISKS": 72.614503816799996, "Ii": 0.19393622493706905, "P.Ii": 0.24836146348866683, "SOVI_RATNG": "Relatively Low", "cluster": "Not Significant", "quadrant": "High Vulnerability & Low Wildfire Risk", "WFIR_RISKR": "Relatively Low" }, "geometry": { "type": "Polygon", "coordinates": [ [ [ -104.655639, 42.609468 ], [ -104.653338, 41.653007 ], [ -104.652992, 41.565014 ], [ -104.05254, 41.564274 ], [ -104.0526, 42.124963 ], [ -104.052773275294996, 42.611766367052901 ], [ -104.655639, 42.609468 ] ] ] } },
{ "type": "Feature", "properties": { "RC8": -0.89174804061280288, "RC4": -0.73844362578965606, "COUNTYFIPS": "039", "SOVI_SCORE": 10.62340967, "RC7": 1.4553248119297311, "RC3": 0.59812274322877523, "NAME.y": "Teton County, Wyoming", "RC2": -0.80993583465084251, "state_name": "WYOMING", "lag_sovi": -1.6495270868802736, "RC6": 0.29146094657410221, "WFIR_EALT": 2087781.41848, "RC5": -0.27277541076822764, "NAME.x": "Teton", "RC1": 4.0892520743512586, "SoVI_class": "< -1 SD", "RC9": -0.42006264222695144, "GEOID": "56039", "SoVI": -4.9146801982788801, "WFIR_RISKS": 90.648854961799998, "Ii": 0.90398347977248183, "P.Ii": 0.10969945051476516, "SOVI_RATNG": "Very Low", "cluster": "Not Significant", "quadrant": "Low Vulnerability & High Wildfire Risk", "WFIR_RISKR": "Relatively Moderate" }, "geometry": { "type": "Polygon", "coordinates": [ [ [ -111.053610326574002, 44.666266977001101 ], [ -111.049077, 44.020072 ], [ -111.044617, 43.31572 ], [ -110.813996, 43.31394 ], [ -110.813993, 43.235178 ], [ -110.578656, 43.235224 ], [ -110.57838, 43.29164 ], [ -110.343959, 43.291165 ], [ -110.344218, 43.377918 ], [ -110.05731, 43.377768 ], [ -110.05157, 43.464783 ], [ -110.053179, 44.008022 ], [ -110.053357, 44.132628 ], [ -110.115614, 44.190402 ], [ -110.150283, 44.290016 ], [ -110.294221, 44.42824 ], [ -110.276521, 44.516648 ], [ -110.375334, 44.583016 ], [ -110.667899, 44.582792 ], [ -110.667867, 44.666291 ], [ -111.053610326574002, 44.666266977001101 ] ] ] } },
{ "type": "Feature", "properties": { "RC8": -0.46304333949033855, "RC4": 0.75820425725837426, "COUNTYFIPS": "011", "SOVI_SCORE": 33.55597964, "RC7": -0.041606123225114602, "RC3": 0.017017280720087929, "NAME.y": "Crook County, Wyoming", "RC2": -1.2449001186584261, "state_name": "WYOMING", "lag_sovi": -2.3334508949126649, "RC6": 0.39466574837463497, "WFIR_EALT": 700511.37608700001, "RC5": 0.26752763130063267, "NAME.x": "Crook", "RC1": -0.36428049554153358, "SoVI_class": "-1 to -0.5 SD", "RC9": -1.041528535647799, "GEOID": "56011", "SoVI": -2.3137694631769499, "WFIR_RISKS": 85.050890585199994, "Ii": 0.60203886757007641, "P.Ii": 0.11611754870792788, "SOVI_RATNG": "Relatively Low", "cluster": "Not Significant", "quadrant": "Low Vulnerability & High Wildfire Risk", "WFIR_RISKR": "Relatively Low" }, "geometry": { "type": "Polygon", "coordinates": [ [ [ -105.076600962208005, 45.000112278142097 ], [ -105.085451, 44.786801 ], [ -105.084467, 44.216633 ], [ -105.079281, 44.176182 ], [ -104.054840270387004, 44.180381720120202 ], [ -104.057879, 44.997605 ], [ -105.076600962208005, 45.000112278142097 ] ] ] } },
{ "type": "Feature", "properties": { "RC8": -0.57768181688720532, "RC4": 0.34513223433234286, "COUNTYFIPS": "005", "SOVI_SCORE": 10.62340967, "RC7": -0.30869207913719776, "RC3": -1.1179615657878781, "NAME.y": "Campbell County, Wyoming", "RC2": -0.45911532021462931, "state_name": "WYOMING", "lag_sovi": -2.0142137772738224, "RC6": 1.1473189094192715, "WFIR_EALT": 2919259.8083600001, "RC5": -0.38878763676629369, "NAME.x": "Campbell", "RC1": 0.00010378399818818108, "SoVI_class": "-1 to -0.5 SD", "RC9": 0.31683563341390902, "GEOID": "56005", "SoVI": -2.5601179709318247, "WFIR_RISKS": 92.907124681900001, "Ii": 0.57500460066179016, "P.Ii": 0.095067947739702646, "SOVI_RATNG": "Very Low", "cluster": "Not Significant", "quadrant": "Low Vulnerability & High Wildfire Risk", "WFIR_RISKR": "Relatively Moderate" }, "geometry": { "type": "Polygon", "coordinates": [ [ [ -106.024815200578004, 44.993472292864404 ], [ -106.009676, 44.563981 ], [ -106.016504, 44.169729 ], [ -106.009201, 43.821579 ], [ -106.017366, 43.494969 ], [ -105.079797, 43.498445 ], [ -105.079281, 44.176182 ], [ -105.084467, 44.216633 ], [ -105.085451, 44.786801 ], [ -105.076600962208005, 45.000112278142097 ], [ -105.913149, 45.000238 ], [ -106.024815200578004, 44.993472292864404 ] ] ] } },
{ "type": "Feature", "properties": { "RC8": -0.42552017677224951, "RC4": 0.73752019217089992, "COUNTYFIPS": "043", "SOVI_SCORE": 79.45292621, "RC7": -0.83523338369381317, "RC3": -0.20362374628674121, "NAME.y": "Washakie County, Wyoming", "RC2": -0.3321908898112097, "state_name": "WYOMING", "lag_sovi": -0.80255297487803468, "RC6": 0.26952533995891587, "WFIR_EALT": 99250.905842599997, "RC5": 0.83270320403595177, "NAME.x": "Washakie", "RC1": -0.11361619178058416, "SoVI_class": "-0.5 to 0.5 SD", "RC9": 1.0008628007388949, "GEOID": "56043", "SoVI": -1.0467975558685023, "WFIR_RISKS": 66.730279898199996, "Ii": 0.093678987463733321, "P.Ii": 0.50639669407195309, "SOVI_RATNG": "Relatively High", "cluster": "Not Significant", "quadrant": "High Vulnerability & Low Wildfire Risk", "WFIR_RISKR": "Relatively Low" }, "geometry": { "type": "Polygon", "coordinates": [ [ [ -108.550562, 44.168455 ], [ -108.550758, 44.079403 ], [ -108.490254, 44.07976 ], [ -108.489431, 43.991866 ], [ -108.427064, 43.992054 ], [ -108.429563, 43.903355 ], [ -108.30936, 43.903255 ], [ -108.309694, 43.846619 ], [ -108.174938, 43.818968 ], [ -107.956448, 43.818666 ], [ -107.956577, 43.733446 ], [ -107.715876, 43.733343 ], [ -107.716218, 43.645766 ], [ -107.595157, 43.646427 ], [ -107.595105, 43.501397 ], [ -107.534897, 43.501362 ], [ -107.110734, 43.500286 ], [ -107.127622, 43.815961 ], [ -107.128584, 44.165692 ], [ -107.146808, 44.165666 ], [ -107.722019, 44.167877 ], [ -108.550562, 44.168455 ] ] ] } },
{ "type": "Feature", "properties": { "RC8": -0.56557846280075674, "RC4": 0.39833207375705898, "COUNTYFIPS": "019", "SOVI_SCORE": 42.77989822, "RC7": -0.54397509621525642, "RC3": 0.71575717827877827, "NAME.y": "Johnson County, Wyoming", "RC2": -0.44812760713612781, "state_name": "WYOMING", "lag_sovi": -1.514047106648662, "RC6": -0.45876734924789581, "WFIR_EALT": 958065.15070300002, "RC5": 0.3662458703596615, "NAME.x": "Johnson", "RC1": 0.28153921228713119, "SoVI_class": "-0.5 to 0.5 SD", "RC9": -0.5351755366068468, "GEOID": "56019", "SoVI": -1.1677851841220477, "WFIR_RISKS": 87.849872773499996, "Ii": 0.19715515077667187, "P.Ii": 0.21085470062516831, "SOVI_RATNG": "Relatively Moderate", "cluster": "Not Significant", "quadrant": "High Vulnerability & High Wildfire Risk", "WFIR_RISKR": "Relatively Low" }, "geometry": { "type": "Polygon", "coordinates": [ [ [ -107.369621, 44.559837 ], [ -107.202038, 44.446305 ], [ -107.145001, 44.324004 ], [ -107.146808, 44.165666 ], [ -107.128584, 44.165692 ], [ -107.127622, 43.815961 ], [ -107.110734, 43.500286 ], [ -107.11092, 43.492362 ], [ -106.516629, 43.491786 ], [ -106.078068, 43.494471 ], [ -106.017366, 43.494969 ], [ -106.009201, 43.821579 ], [ -106.016504, 44.169729 ], [ -106.009676, 44.563981 ], [ -106.663806, 44.556874 ], [ -107.369621, 44.559837 ] ] ] } },
{ "type": "Feature", "properties": { "RC8": -0.43304467980796585, "RC4": 0.15778464476974954, "COUNTYFIPS": "017", "SOVI_SCORE": 73.34605598, "RC7": -0.43300916702939762, "RC3": 0.89633261171037515, "NAME.y": "Hot Springs County, Wyoming", "RC2": -0.0087464396387233467, "state_name": "WYOMING", "lag_sovi": -0.41351658583056367, "RC6": -0.86899789311593301, "WFIR_EALT": 97961.5971078, "RC5": 1.9193812461148545, "NAME.x": "Hot Springs", "RC1": -0.084036535605929538, "SoVI_class": "-0.5 to 0.5 SD", "RC9": -0.20623521037560252, "GEOID": "56017", "SoVI": -0.99326505776455642, "WFIR_RISKS": 66.444020356199999, "Ii": 0.045799830443951972, "P.Ii": 0.80900705057533129, "SOVI_RATNG": "Relatively High", "cluster": "Not Significant", "quadrant": "High Vulnerability & Low Wildfire Risk", "WFIR_RISKR": "Relatively Low" }, "geometry": { "type": "Polygon", "coordinates": [ [ [ -109.312949, 43.813293 ], [ -109.171448, 43.699198 ], [ -109.171638, 43.619764 ], [ -108.934141, 43.619163 ], [ -108.694672, 43.575755 ], [ -108.695072, 43.532255 ], [ -108.337861, 43.459765 ], [ -108.156285, 43.470628 ], [ -107.595137, 43.472279 ], [ -107.595105, 43.501397 ], [ -107.595157, 43.646427 ], [ -107.716218, 43.645766 ], [ -107.715876, 43.733343 ], [ -107.956577, 43.733446 ], [ -107.956448, 43.818666 ], [ -108.174938, 43.818968 ], [ -108.309694, 43.846619 ], [ -108.30936, 43.903255 ], [ -108.429563, 43.903355 ], [ -108.427064, 43.992054 ], [ -108.489431, 43.991866 ], [ -108.490254, 44.07976 ], [ -108.550758, 44.079403 ], [ -108.792277, 44.079616 ], [ -108.791779, 43.991053 ], [ -108.915985, 43.990854 ], [ -108.912783, 43.904754 ], [ -109.092878, 43.904474 ], [ -109.093603, 43.817619 ], [ -109.312949, 43.813293 ] ] ] } },
{ "type": "Feature", "properties": { "RC8": -0.77344070165359446, "RC4": 0.50922880594236064, "COUNTYFIPS": "023", "SOVI_SCORE": 29.13486005, "RC7": -0.40558148094169649, "RC3": -0.087751728414790398, "NAME.y": "Lincoln County, Wyoming", "RC2": -0.74497817003930666, "state_name": "WYOMING", "lag_sovi": -2.2760138379299368, "RC6": 0.030759723142053549, "WFIR_EALT": 644285.32597000001, "RC5": -0.19137667269008712, "NAME.x": "Lincoln", "RC1": 0.15120120195318068, "SoVI_class": "-1 to -0.5 SD", "RC9": -0.090869231968261618, "GEOID": "56023", "SoVI": -1.5839767594804359, "WFIR_RISKS": 83.6195928753, "Ii": 0.40200317444994782, "P.Ii": 0.029274217414802871, "SOVI_RATNG": "Relatively Low", "cluster": "Low-Low", "quadrant": "Low Vulnerability & Low Wildfire Risk", "WFIR_RISKR": "Relatively Low" }, "geometry": { "type": "Polygon", "coordinates": [ [ [ -111.044617, 43.31572 ], [ -111.043564, 42.722624 ], [ -111.047109, 42.142497 ], [ -111.045819273941007, 41.579844950485899 ], [ -110.048, 41.578015 ], [ -110.046408, 42.006948 ], [ -110.053708, 42.270744 ], [ -110.541634, 42.277491 ], [ -110.543329, 42.448536 ], [ -110.59013, 42.448494 ], [ -110.587993, 43.126147 ], [ -110.578656, 43.235224 ], [ -110.813993, 43.235178 ], [ -110.813996, 43.31394 ], [ -111.044617, 43.31572 ] ] ] } },
{ "type": "Feature", "properties": { "RC8": -0.12765291770177542, "RC4": 0.12964564059491385, "COUNTYFIPS": "021", "SOVI_SCORE": 22.04198473, "RC7": -1.0627075934678141, "RC3": -0.53234241905166202, "NAME.y": "Laramie County, Wyoming", "RC2": 0.39950694848762119, "state_name": "WYOMING", "lag_sovi": -1.798955470881096, "RC6": 0.42003127151834313, "WFIR_EALT": 2084939.1917099999, "RC5": -0.22507104341414119, "NAME.x": "Laramie", "RC1": 0.69396417538320576, "SoVI_class": "-1 to -0.5 SD", "RC9": 0.57795850567345897, "GEOID": "56021", "SoVI": -1.5045162389526652, "WFIR_RISKS": 91.857506361299997, "Ii": 0.30180266629572694, "P.Ii": 0.17534627868293556, "SOVI_RATNG": "Relatively Low", "cluster": "Not Significant", "quadrant": "High Vulnerability & High Wildfire Risk", "WFIR_RISKR": "Relatively Moderate" }, "geometry": { "type": "Polygon", "coordinates": [ [ [ -105.278236, 41.656655 ], [ -105.276859991921, 40.998173242790003 ], [ -104.855273, 40.998048 ], [ -104.053249, 41.001406 ], [ -104.05254, 41.564274 ], [ -104.652992, 41.565014 ], [ -104.653338, 41.653007 ], [ -105.278236, 41.656655 ] ] ] } },
{ "type": "Feature", "properties": { "RC8": -0.2338900902875809, "RC4": -1.9218916431560535, "COUNTYFIPS": "001", "SOVI_SCORE": 21.11959288, "RC7": -1.1901422925735967, "RC3": -1.1131956713544806, "NAME.y": "Albany County, Wyoming", "RC2": 0.79238263397717357, "state_name": "WYOMING", "lag_sovi": -1.7143423831502891, "RC6": -0.41301151413222592, "WFIR_EALT": 782122.45641099999, "RC5": 0.61211656939265702, "NAME.x": "Albany", "RC1": 1.1064151129152175, "SoVI_class": "< -1 SD", "RC9": 1.8705130472568383, "GEOID": "56001", "SoVI": -3.1017441843133486, "WFIR_RISKS": 84.669211195900004, "Ii": 0.59293804612586654, "P.Ii": 0.15435192820826882, "SOVI_RATNG": "Relatively Low", "cluster": "Not Significant", "quadrant": "Low Vulnerability & High Wildfire Risk", "WFIR_RISKR": "Relatively Low" }, "geometry": { "type": "Polygon", "coordinates": [ [ [ -106.073403, 42.433236 ], [ -106.074919, 42.086649 ], [ -106.068406, 41.395028 ], [ -106.322885, 41.395141 ], [ -106.321165, 40.999123 ], [ -105.724804, 40.99691 ], [ -105.276859991921, 40.998173242790003 ], [ -105.278236, 41.656655 ], [ -105.271746, 41.986095 ], [ -105.281139, 42.088888 ], [ -105.28391, 42.431402 ], [ -105.332638, 42.431106 ], [ -105.375541, 42.290139 ], [ -105.613865, 42.304455 ], [ -105.614656, 42.377436 ], [ -105.556042, 42.430583 ], [ -106.073403, 42.433236 ] ] ] } },
{ "type": "Feature", "properties": { "RC8": -0.94613123191279025, "RC4": 1.0040231391803236, "COUNTYFIPS": "031", "SOVI_SCORE": 83.8740458, "RC7": -0.55090689638109513, "RC3": 0.3252515446494057, "NAME.y": "Platte County, Wyoming", "RC2": 0.29583100717683725, "state_name": "WYOMING", "lag_sovi": -2.0933926558456912, "RC6": 1.3175606453691404, "WFIR_EALT": 660531.72007899999, "RC5": 0.24531934021030777, "NAME.x": "Platte", "RC1": -0.50197065792727513, "SoVI_class": "-1 to -0.5 SD", "RC9": -0.62579690137093591, "GEOID": "56031", "SoVI": -1.5586386663104279, "WFIR_RISKS": 87.595419847299993, "Ii": 0.36383286077188781, "P.Ii": 0.11489413993132948, "SOVI_RATNG": "Very High", "cluster": "Not Significant", "quadrant": "High Vulnerability & High Wildfire Risk", "WFIR_RISKR": "Relatively Low" }, "geometry": { "type": "Polygon", "coordinates": [ [ [ -104.892437, 42.608939 ], [ -105.286511, 42.605826 ], [ -105.28391, 42.431402 ], [ -105.281139, 42.088888 ], [ -105.271746, 41.986095 ], [ -105.278236, 41.656655 ], [ -104.653338, 41.653007 ], [ -104.655639, 42.609468 ], [ -104.892437, 42.608939 ] ] ] } },
{ "type": "Feature", "properties": { "RC8": 0.014233155565537468, "RC4": -0.68794584580271101, "COUNTYFIPS": "027", "SOVI_SCORE": 79.07124682, "RC7": -0.060764417992315189, "RC3": 1.1533522860165684, "NAME.y": "Niobrara County, Wyoming", "RC2": -0.90240685209637317, "state_name": "WYOMING", "lag_sovi": -2.2642564884694365, "RC6": -0.42154780275659409, "WFIR_EALT": 309536.010481, "RC5": 2.4043723543498263, "NAME.x": "Niobrara", "RC1": -0.093920205973126406, "SoVI_class": "-1 to -0.5 SD", "RC9": -0.53070993701560853, "GEOID": "56027", "SoVI": -2.903145956945008, "WFIR_RISKS": 80.8842239186, "Ii": 0.73299374867707234, "P.Ii": 0.12671106993389514, "SOVI_RATNG": "Relatively High", "cluster": "Not Significant", "quadrant": "Low Vulnerability & Low Wildfire Risk", "WFIR_RISKR": "Relatively Low" }, "geometry": { "type": "Polygon", "coordinates": [ [ [ -104.899941, 43.49964 ], [ -104.89848, 42.78303 ], [ -104.892437, 42.608939 ], [ -104.655639, 42.609468 ], [ -104.052773275294996, 42.611766367052901 ], [ -104.054855942138005, 43.503324035365402 ], [ -104.899941, 43.49964 ] ] ] } },
{ "type": "Feature", "properties": { "RC8": -0.18231446167607759, "RC4": 0.25088073623702761, "COUNTYFIPS": "033", "SOVI_SCORE": 32.44274809, "RC7": -0.90542374756392485, "RC3": -0.040595777485238752, "NAME.y": "Sheridan County, Wyoming", "RC2": -0.29750059010107099, "state_name": "WYOMING", "lag_sovi": -1.0764194364320845, "RC6": -0.38606877069673051, "WFIR_EALT": 2802051.9907800001, "RC5": 0.33192019535762063, "NAME.x": "Sheridan", "RC1": 0.46968318475752185, "SoVI_class": "-0.5 to 0.5 SD", "RC9": 0.65667461352679646, "GEOID": "56033", "SoVI": -0.93381383648089999, "WFIR_RISKS": 93.893129771000005, "Ii": 0.11208503062334468, "P.Ii": 0.41749533095703134, "SOVI_RATNG": "Relatively Low", "cluster": "Not Significant", "quadrant": "High Vulnerability & High Wildfire Risk", "WFIR_RISKR": "Relatively Moderate" }, "geometry": { "type": "Polygon", "coordinates": [ [ [ -107.911518281902005, 45.000672625471502 ], [ -107.865018, 44.873639 ], [ -107.741543, 44.714352 ], [ -107.671158, 44.680248 ], [ -107.549172, 44.678793 ], [ -107.528157, 44.634782 ], [ -107.392902, 44.595963 ], [ -107.369621, 44.559837 ], [ -106.663806, 44.556874 ], [ -106.009676, 44.563981 ], [ -106.024815200578004, 44.993472292864404 ], [ -106.570917843580006, 44.994859850319997 ], [ -107.911518281902005, 45.000672625471502 ] ] ] } },
{ "type": "Feature", "properties": { "RC8": 0.47225596519532725, "RC4": 0.88762387729341719, "COUNTYFIPS": "041", "SOVI_SCORE": 14.94910941, "RC7": -1.1593711211737572, "RC3": -0.85569983696276708, "NAME.y": "Uinta County, Wyoming", "RC2": 0.073115500211374071, "state_name": "WYOMING", "lag_sovi": -1.825371442961278, "RC6": 0.41954724371958019, "WFIR_EALT": 738770.25678099995, "RC5": -0.26736543147187397, "NAME.x": "Uinta", "RC1": -0.37207536541873309, "SoVI_class": "-0.5 to 0.5 SD", "RC9": 0.13108041239451923, "GEOID": "56041", "SoVI": -0.23110164987085957, "WFIR_RISKS": 83.492366412199999, "Ii": 0.047039216245570059, "P.Ii": 0.22092343538324255, "SOVI_RATNG": "Very Low", "cluster": "Not Significant", "quadrant": "High Vulnerability & Low Wildfire Risk", "WFIR_RISKR": "Relatively Low" }, "geometry": { "type": "Polygon", "coordinates": [ [ [ -111.045819273941007, 41.579844950485899 ], [ -111.046723, 40.997959 ], [ -110.237848, 40.995427 ], [ -110.048482511407002, 40.997554638338599 ], [ -110.048, 41.578015 ], [ -111.045819273941007, 41.579844950485899 ] ] ] } }
]
}
