{
"type": "FeatureCollection",
"name": "county_all_vars",
"crs": { "type": "name", "properties": { "name": "urn:ogc:def:crs:OGC:1.3:CRS84" } },
"features": [
{ "type": "Feature", "properties": { "RC10": 0.70331690435363414, "WFIR_RISKR": "Relatively Low", "RC8": 0.66637759186061163, "RC4": -0.75676785567279237, "COUNTYFIPS": "045", "SOVI_SCORE": 21.31043257, "RC3": 0.61640387699515087, "NAME.y": "Weston County, Wyoming", "RC2": -0.27445856016444603, "state_name": "WYOMING", "lag_sovi": -1.584100214986385, "RC5": 0.5435384834632766, "RC6": -0.97840448532583402, "WFIR_EALT": 710481.920866, "NAME.x": "Weston", "RC1": -0.19242501460642908, "SoVI_class": "-1 to -0.5 SD", "RC9": -0.979808065826828, "GEOID": "56045", "RC7": -1.3730496359718036, "SoVI": -2.727503698609155, "WFIR_RISKS": 83.746819338400002, "Ii": 0.43360700496120003, "P.Ii": 0.31017672800849372, "SOVI_RATNG": "Relatively Low", "cluster": "Not Significant", "quadrant": "Low Vulnerability & Low Wildfire Risk" }, "geometry": { "type": "Polygon", "coordinates": [ [ [ -105.079281, 44.176182 ], [ -105.079797, 43.498445 ], [ -104.899941, 43.49964 ], [ -104.054855942138005, 43.503324035365402 ], [ -104.054840270387004, 44.180381720120202 ], [ -105.079281, 44.176182 ] ] ] } },
{ "type": "Feature", "properties": { "RC10": 0.035768083605068411, "WFIR_RISKR": "Relatively Low", "RC8": 0.10869355711603716, "RC4": 0.44879793480369901, "COUNTYFIPS": "029", "SOVI_SCORE": 38.45419847, "RC3": 0.49256431576361309, "NAME.y": "Park County, Wyoming", "RC2": -0.93800914127973301, "state_name": "WYOMING", "lag_sovi": -1.635815575364179, "RC5": 0.18399426817063952, "RC6": 0.523963088232969, "WFIR_EALT": 555350.12050099997, "NAME.x": "Park", "RC1": 0.19029264835143775, "SoVI_class": "-0.5 to 0.5 SD", "RC9": 0.31045033137632949, "GEOID": "56029", "RC7": 0.014752881851193417, "SoVI": 0.62269413494709924, "WFIR_RISKS": 82.729007633600006, "Ii": -0.1022250667365225, "P.Ii": 0.1388963313947057, "SOVI_RATNG": "Relatively Low", "cluster": "Not Significant", "quadrant": "High Vulnerability & Low Wildfire Risk" }, "geometry": { "type": "Polygon", "coordinates": [ [ [ -108.621312796748995, 45.000250837426996 ], [ -109.082849, 44.999551 ], [ -109.103228, 45.005815 ], [ -110.183221, 44.996953 ], [ -110.704476, 44.992174 ], [ -111.054556, 45.000955 ], [ -111.053610326574002, 44.666266977001101 ], [ -110.667867, 44.666291 ], [ -110.667899, 44.582792 ], [ -110.375334, 44.583016 ], [ -110.276521, 44.516648 ], [ -110.294221, 44.42824 ], [ -110.150283, 44.290016 ], [ -110.115614, 44.190402 ], [ -110.053357, 44.132628 ], [ -110.053179, 44.008022 ], [ -109.993871, 43.949557 ], [ -109.8819, 43.949076 ], [ -109.7899, 43.803252 ], [ -109.672482, 43.868096 ], [ -109.641808, 43.922785 ], [ -109.566943, 43.95482 ], [ -109.442361, 43.930434 ], [ -109.312949, 43.813293 ], [ -109.093603, 43.817619 ], [ -109.092878, 43.904474 ], [ -108.912783, 43.904754 ], [ -108.915985, 43.990854 ], [ -108.791779, 43.991053 ], [ -108.792277, 44.079616 ], [ -108.550758, 44.079403 ], [ -108.550562, 44.168455 ], [ -108.573797, 44.168468 ], [ -108.57342, 44.520811 ], [ -108.592494, 44.52093 ], [ -108.592296, 44.871444 ], [ -108.621312796748995, 45.000250837426996 ] ] ] } },
{ "type": "Feature", "properties": { "RC10": 0.57506729739153895, "WFIR_RISKR": "Relatively Moderate", "RC8": -0.5506360994161994, "RC4": 0.5105873011598282, "COUNTYFIPS": "013", "SOVI_SCORE": 52.76717557, "RC3": -0.37562399764006438, "NAME.y": "Fremont County, Wyoming", "RC2": 0.16550393281467585, "state_name": "WYOMING", "lag_sovi": -0.70390944346140871, "RC5": 0.40204582497612718, "RC6": 1.081086138268218, "WFIR_EALT": 1871360.9647, "NAME.x": "Fremont", "RC1": 0.0043712183975522095, "SoVI_class": "-0.5 to 0.5 SD", "RC9": -1.0470478498261651, "GEOID": "56013", "RC7": 0.89357293739911481, "SoVI": 0.84609261677726755, "WFIR_RISKS": 92.557251908400005, "Ii": -0.05976996279317516, "P.Ii": 0.52543502373393036, "SOVI_RATNG": "Relatively Moderate", "cluster": "Not Significant", "quadrant": "High Vulnerability & High Wildfire Risk" }, "geometry": { "type": "Polygon", "coordinates": [ [ [ -110.053179, 44.008022 ], [ -110.05157, 43.464783 ], [ -109.754717, 43.4632 ], [ -109.754462, 43.365905 ], [ -109.694942, 43.366152 ], [ -109.692716, 43.26503 ], [ -109.620634, 43.125602 ], [ -109.502407, 43.010511 ], [ -109.346779, 42.920164 ], [ -109.217449, 42.760048 ], [ -109.072851, 42.693514 ], [ -109.069477, 42.433477 ], [ -109.043864, 42.263684 ], [ -108.125032, 42.262516 ], [ -107.522722, 42.261756 ], [ -107.522923, 42.434356 ], [ -107.542025, 42.434356 ], [ -107.543526, 42.781358 ], [ -107.501425, 42.781458 ], [ -107.502327, 43.12806 ], [ -107.516728, 43.12796 ], [ -107.517031, 43.472659 ], [ -107.534897, 43.501362 ], [ -107.595105, 43.501397 ], [ -107.595137, 43.472279 ], [ -108.156285, 43.470628 ], [ -108.337861, 43.459765 ], [ -108.695072, 43.532255 ], [ -108.694672, 43.575755 ], [ -108.934141, 43.619163 ], [ -109.171638, 43.619764 ], [ -109.171448, 43.699198 ], [ -109.312949, 43.813293 ], [ -109.442361, 43.930434 ], [ -109.566943, 43.95482 ], [ -109.641808, 43.922785 ], [ -109.672482, 43.868096 ], [ -109.7899, 43.803252 ], [ -109.8819, 43.949076 ], [ -109.993871, 43.949557 ], [ -110.053179, 44.008022 ] ] ] } },
{ "type": "Feature", "properties": { "RC10": -0.6336666898041875, "WFIR_RISKR": "Very Low", "RC8": -0.2942869058803384, "RC4": 0.58066051154157694, "COUNTYFIPS": "003", "SOVI_SCORE": 52.60814249, "RC3": -0.65446602145896748, "NAME.y": "Big Horn County, Wyoming", "RC2": -0.55555628929565881, "state_name": "WYOMING", "lag_sovi": 0.8743880304884053, "RC5": 0.83887039503014948, "RC6": -0.56181311959642311, "WFIR_EALT": 80910.264190700007, "NAME.x": "Big Horn", "RC1": -0.70375091947867596, "SoVI_class": "-1 to -0.5 SD", "RC9": -0.98543769275760962, "GEOID": "56003", "RC7": 1.088788925173338, "SoVI": -2.1508967576297437, "WFIR_RISKS": 61.354961832100003, "Ii": -0.18874352310437945, "P.Ii": 0.49776669521287442, "SOVI_RATNG": "Relatively Moderate", "cluster": "Not Significant", "quadrant": "Low Vulnerability & Low Wildfire Risk" }, "geometry": { "type": "Polygon", "coordinates": [ [ [ -108.621312796748995, 45.000250837426996 ], [ -108.592296, 44.871444 ], [ -108.592494, 44.52093 ], [ -108.57342, 44.520811 ], [ -108.573797, 44.168468 ], [ -108.550562, 44.168455 ], [ -107.722019, 44.167877 ], [ -107.146808, 44.165666 ], [ -107.145001, 44.324004 ], [ -107.202038, 44.446305 ], [ -107.369621, 44.559837 ], [ -107.392902, 44.595963 ], [ -107.528157, 44.634782 ], [ -107.549172, 44.678793 ], [ -107.671158, 44.680248 ], [ -107.741543, 44.714352 ], [ -107.865018, 44.873639 ], [ -107.911518281902005, 45.000672625471502 ], [ -108.621312796748995, 45.000250837426996 ] ] ] } },
{ "type": "Feature", "properties": { "RC10": 1.4809342833795112, "WFIR_RISKR": "Relatively Low", "RC8": 0.54876196254205734, "RC4": -0.53165859047394726, "COUNTYFIPS": "007", "SOVI_SCORE": 47.83715013, "RC3": 0.12335393616934728, "NAME.y": "Carbon County, Wyoming", "RC2": -0.15842130959310302, "state_name": "WYOMING", "lag_sovi": 0.03238347287621772, "RC5": -0.22660019656360003, "RC6": -0.1808813337951802, "WFIR_EALT": 456652.05329700001, "NAME.x": "Carbon", "RC1": -0.3665748483621083, "SoVI_class": "0.5 to 1 SD", "RC9": 0.54365355171835628, "GEOID": "56007", "RC7": 0.10201055453429583, "SoVI": 2.5209280994070458, "WFIR_RISKS": 81.902035623399996, "Ii": 0.0081927965325507505, "P.Ii": 0.97005959720459356, "SOVI_RATNG": "Relatively Moderate", "cluster": "Not Significant", "quadrant": "High Vulnerability & Low Wildfire Risk" }, "geometry": { "type": "Polygon", "coordinates": [ [ [ -107.522722, 42.261756 ], [ -107.503821, 42.087957 ], [ -107.50972, 41.657452 ], [ -107.929736, 41.659596 ], [ -107.917104, 41.398499 ], [ -107.918421, 41.002036 ], [ -106.857773, 41.002663 ], [ -106.321165, 40.999123 ], [ -106.322885, 41.395141 ], [ -106.068406, 41.395028 ], [ -106.074919, 42.086649 ], [ -106.073403, 42.433236 ], [ -106.075852, 42.433218 ], [ -106.624983, 42.430488 ], [ -107.522923, 42.434356 ], [ -107.522722, 42.261756 ] ] ] } },
{ "type": "Feature", "properties": { "RC10": 1.6866908427479996, "WFIR_RISKR": "Relatively Low", "RC8": -0.49939433783777726, "RC4": 0.19824409757552292, "COUNTYFIPS": "035", "SOVI_SCORE": 27.54452926, "RC3": 0.041936136905993515, "NAME.y": "Sublette County, Wyoming", "RC2": -1.1314968773584266, "state_name": "WYOMING", "lag_sovi": -2.2765200521841544, "RC5": -0.79207749367000546, "RC6": -0.72695360527787001, "WFIR_EALT": 1053270.8830800001, "NAME.x": "Sublette", "RC1": 0.46645767210676931, "SoVI_class": "-1 to -0.5 SD", "RC9": -1.1711048398857449, "GEOID": "56035", "RC7": -0.45214644650478197, "SoVI": -1.7286052080718484, "WFIR_RISKS": 87.722646310399995, "Ii": 0.39492587199801127, "P.Ii": 0.14641678233967145, "SOVI_RATNG": "Relatively Low", "cluster": "Not Significant", "quadrant": "Low Vulnerability & High Wildfire Risk" }, "geometry": { "type": "Polygon", "coordinates": [ [ [ -110.578656, 43.235224 ], [ -110.587993, 43.126147 ], [ -110.59013, 42.448494 ], [ -110.543329, 42.448536 ], [ -110.541634, 42.277491 ], [ -110.053708, 42.270744 ], [ -109.500686, 42.263559 ], [ -109.043864, 42.263684 ], [ -109.069477, 42.433477 ], [ -109.072851, 42.693514 ], [ -109.217449, 42.760048 ], [ -109.346779, 42.920164 ], [ -109.502407, 43.010511 ], [ -109.620634, 43.125602 ], [ -109.692716, 43.26503 ], [ -109.694942, 43.366152 ], [ -109.754462, 43.365905 ], [ -109.754717, 43.4632 ], [ -110.05157, 43.464783 ], [ -110.05731, 43.377768 ], [ -110.344218, 43.377918 ], [ -110.343959, 43.291165 ], [ -110.57838, 43.29164 ], [ -110.578656, 43.235224 ] ] ] } },
{ "type": "Feature", "properties": { "RC10": 1.077782028639112, "WFIR_RISKR": "Relatively Moderate", "RC8": 0.20560851373981287, "RC4": 0.14832593487182658, "COUNTYFIPS": "025", "SOVI_SCORE": 20.51526718, "RC3": -0.28822955730861721, "NAME.y": "Natrona County, Wyoming", "RC2": -0.51081159853787672, "state_name": "WYOMING", "lag_sovi": 1.0961477867856573, "RC5": 0.19299875182326384, "RC6": 0.68226519744143932, "WFIR_EALT": 2657673.8024300002, "NAME.x": "Natrona", "RC1": 0.4587118854935428, "SoVI_class": "-0.5 to 0.5 SD", "RC9": 0.12294818030794293, "GEOID": "56025", "RC7": 0.32861362852414644, "SoVI": 1.1147916903609796, "WFIR_RISKS": 93.034351145000002, "Ii": 0.12263406457023576, "P.Ii": 0.43320415064949941, "SOVI_RATNG": "Relatively Low", "cluster": "Not Significant", "quadrant": "High Vulnerability & High Wildfire Risk" }, "geometry": { "type": "Polygon", "coordinates": [ [ [ -107.534897, 43.501362 ], [ -107.517031, 43.472659 ], [ -107.516728, 43.12796 ], [ -107.502327, 43.12806 ], [ -107.501425, 42.781458 ], [ -107.543526, 42.781358 ], [ -107.542025, 42.434356 ], [ -107.522923, 42.434356 ], [ -106.624983, 42.430488 ], [ -106.075852, 42.433218 ], [ -106.072669, 42.778165 ], [ -106.078068, 43.494471 ], [ -106.516629, 43.491786 ], [ -107.11092, 43.492362 ], [ -107.110734, 43.500286 ], [ -107.534897, 43.501362 ] ] ] } },
{ "type": "Feature", "properties": { "RC10": 1.4906529877725736, "WFIR_RISKR": "Relatively Moderate", "RC8": 0.71711312526169224, "RC4": 0.55259756064073728, "COUNTYFIPS": "009", "SOVI_SCORE": 42.43002545, "RC3": -0.021464606665111598, "NAME.y": "Converse County, Wyoming", "RC2": -0.35310119687084757, "state_name": "WYOMING", "lag_sovi": -0.15843139213375618, "RC5": 0.34138861991855679, "RC6": -0.46998832401621971, "WFIR_EALT": 1525151.6817099999, "NAME.x": "Converse", "RC1": 0.26974321045329752, "SoVI_class": "-0.5 to 0.5 SD", "RC9": -0.13619970753915406, "GEOID": "56009", "RC7": 0.12497130868137908, "SoVI": 1.2934493168931951, "WFIR_RISKS": 91.094147582700003, "Ii": -0.020565484370102267, "P.Ii": 0.88915432519771131, "SOVI_RATNG": "Relatively Moderate", "cluster": "Not Significant", "quadrant": "High Vulnerability & High Wildfire Risk" }, "geometry": { "type": "Polygon", "coordinates": [ [ [ -106.078068, 43.494471 ], [ -106.072669, 42.778165 ], [ -106.075852, 42.433218 ], [ -106.073403, 42.433236 ], [ -105.556042, 42.430583 ], [ -105.614656, 42.377436 ], [ -105.613865, 42.304455 ], [ -105.375541, 42.290139 ], [ -105.332638, 42.431106 ], [ -105.28391, 42.431402 ], [ -105.286511, 42.605826 ], [ -104.892437, 42.608939 ], [ -104.89848, 42.78303 ], [ -104.899941, 43.49964 ], [ -105.079797, 43.498445 ], [ -106.017366, 43.494969 ], [ -106.078068, 43.494471 ] ] ] } },
{ "type": "Feature", "properties": { "RC10": 1.6463520956143125, "WFIR_RISKR": "Relatively Low", "RC8": -0.26294052615513602, "RC4": 0.16218354535830337, "COUNTYFIPS": "037", "SOVI_SCORE": 19.33842239, "RC3": -0.55209620268393922, "NAME.y": "Sweetwater County, Wyoming", "RC2": -0.19615085541703448, "state_name": "WYOMING", "lag_sovi": -0.53380752973159229, "RC5": 0.25067120490364142, "RC6": 0.010617652237267124, "WFIR_EALT": 151179.71090599999, "NAME.x": "Sweetwater", "RC1": 0.11267377523135053, "SoVI_class": "-0.5 to 0.5 SD", "RC9": 0.23968158761074143, "GEOID": "56037", "RC7": -0.10612457225707002, "SoVI": 0.57817774417245282, "WFIR_RISKS": 66.157760814200003, "Ii": -0.030973790348163294, "P.Ii": 0.63000845459300781, "SOVI_RATNG": "Very Low", "cluster": "Not Significant", "quadrant": "High Vulnerability & Low Wildfire Risk" }, "geometry": { "type": "Polygon", "coordinates": [ [ [ -110.053708, 42.270744 ], [ -110.046408, 42.006948 ], [ -110.048, 41.578015 ], [ -110.048482511407002, 40.997554638338599 ], [ -109.534926, 40.998143 ], [ -108.884138, 41.000094 ], [ -107.918421, 41.002036 ], [ -107.917104, 41.398499 ], [ -107.929736, 41.659596 ], [ -107.50972, 41.657452 ], [ -107.503821, 42.087957 ], [ -107.522722, 42.261756 ], [ -108.125032, 42.262516 ], [ -109.043864, 42.263684 ], [ -109.500686, 42.263559 ], [ -110.053708, 42.270744 ] ] ] } },
{ "type": "Feature", "properties": { "RC10": 0.88369216195592448, "WFIR_RISKR": "Relatively Low", "RC8": 2.2226945320050491, "RC4": -0.79854045558380682, "COUNTYFIPS": "015", "SOVI_SCORE": 35.52798982, "RC3": 0.71323868449009431, "NAME.y": "Goshen County, Wyoming", "RC2": -0.61054293215897337, "state_name": "WYOMING", "lag_sovi": 1.1211630372564894, "RC5": 0.35947263784540373, "RC6": 0.58640091484791812, "WFIR_EALT": 217716.96826699999, "NAME.x": "Goshen", "RC1": -0.5039316108848777, "SoVI_class": "> 1 SD", "RC9": 0.1021165638901438, "GEOID": "56015", "RC7": 0.67718535060492047, "SoVI": 3.9207037930907438, "WFIR_RISKS": 72.614503816799996, "Ii": 0.44114472734619542, "P.Ii": 0.53149699788989446, "SOVI_RATNG": "Relatively Low", "cluster": "Not Significant", "quadrant": "High Vulnerability & Low Wildfire Risk" }, "geometry": { "type": "Polygon", "coordinates": [ [ [ -104.655639, 42.609468 ], [ -104.653338, 41.653007 ], [ -104.652992, 41.565014 ], [ -104.05254, 41.564274 ], [ -104.0526, 42.124963 ], [ -104.052773275294996, 42.611766367052901 ], [ -104.655639, 42.609468 ] ] ] } },
{ "type": "Feature", "properties": { "RC10": -1.0483281166263534, "WFIR_RISKR": "Relatively Moderate", "RC8": -0.99808964714266857, "RC4": -0.55707498374123199, "COUNTYFIPS": "039", "SOVI_SCORE": 10.62340967, "RC3": 0.079419073951203817, "NAME.y": "Teton County, Wyoming", "RC2": 0.50497193988417388, "state_name": "WYOMING", "lag_sovi": -1.3702325960250192, "RC5": -0.30049842452464537, "RC6": -1.1295621280898986, "WFIR_EALT": 2087781.41848, "NAME.x": "Teton", "RC1": 4.223593222713502, "SoVI_class": "< -1 SD", "RC9": -0.928259721538226, "GEOID": "56039", "RC7": -0.69304035130441322, "SoVI": -8.6930587327962705, "WFIR_RISKS": 90.648854961799998, "Ii": 1.1954053550676089, "P.Ii": 0.19812380357039996, "SOVI_RATNG": "Very Low", "cluster": "Not Significant", "quadrant": "Low Vulnerability & High Wildfire Risk" }, "geometry": { "type": "Polygon", "coordinates": [ [ [ -111.053610326574002, 44.666266977001101 ], [ -111.049077, 44.020072 ], [ -111.044617, 43.31572 ], [ -110.813996, 43.31394 ], [ -110.813993, 43.235178 ], [ -110.578656, 43.235224 ], [ -110.57838, 43.29164 ], [ -110.343959, 43.291165 ], [ -110.344218, 43.377918 ], [ -110.05731, 43.377768 ], [ -110.05157, 43.464783 ], [ -110.053179, 44.008022 ], [ -110.053357, 44.132628 ], [ -110.115614, 44.190402 ], [ -110.150283, 44.290016 ], [ -110.294221, 44.42824 ], [ -110.276521, 44.516648 ], [ -110.375334, 44.583016 ], [ -110.667899, 44.582792 ], [ -110.667867, 44.666291 ], [ -111.053610326574002, 44.666266977001101 ] ] ] } },
{ "type": "Feature", "properties": { "RC10": 0.3559269126163026, "WFIR_RISKR": "Relatively Low", "RC8": 0.61894914682112578, "RC4": 0.65366875714680217, "COUNTYFIPS": "011", "SOVI_SCORE": 33.55597964, "RC3": 0.11673909018688999, "NAME.y": "Crook County, Wyoming", "RC2": -0.74189577151081865, "state_name": "WYOMING", "lag_sovi": -2.8352650608318668, "RC5": -0.058784140787509612, "RC6": -1.2688893799303933, "WFIR_EALT": 700511.37608700001, "NAME.x": "Crook", "RC1": -0.27273908185304563, "SoVI_class": "-0.5 to 0.5 SD", "RC9": -0.32258578323080572, "GEOID": "56011", "RC7": -0.86877291536873003, "SoVI": -1.1253367206290721, "WFIR_RISKS": 85.050890585199994, "Ii": 0.32020229852623966, "P.Ii": 0.07093961558079738, "SOVI_RATNG": "Relatively Low", "cluster": "Not Significant", "quadrant": "Low Vulnerability & High Wildfire Risk" }, "geometry": { "type": "Polygon", "coordinates": [ [ [ -105.076600962208005, 45.000112278142097 ], [ -105.085451, 44.786801 ], [ -105.084467, 44.216633 ], [ -105.079281, 44.176182 ], [ -104.054840270387004, 44.180381720120202 ], [ -104.057879, 44.997605 ], [ -105.076600962208005, 45.000112278142097 ] ] ] } },
{ "type": "Feature", "properties": { "RC10": 1.0546645441174036, "WFIR_RISKR": "Relatively Moderate", "RC8": -0.57464861363558717, "RC4": 0.27158912526388879, "COUNTYFIPS": "005", "SOVI_SCORE": 10.62340967, "RC3": -1.1866614481084166, "NAME.y": "Campbell County, Wyoming", "RC2": -0.37317741740484822, "state_name": "WYOMING", "lag_sovi": -0.30214991045073025, "RC5": -0.34282589176087064, "RC6": -0.77691440448791538, "WFIR_EALT": 2919259.8083600001, "NAME.x": "Campbell", "RC1": 0.17131536751788973, "SoVI_class": "-0.5 to 0.5 SD", "RC9": -0.4090679725997991, "GEOID": "56005", "RC7": 0.46163935602505562, "SoVI": -1.3610663065872377, "WFIR_RISKS": 92.907124681900001, "Ii": 0.041271479859088536, "P.Ii": 0.81029205103511492, "SOVI_RATNG": "Very Low", "cluster": "Not Significant", "quadrant": "Low Vulnerability & High Wildfire Risk" }, "geometry": { "type": "Polygon", "coordinates": [ [ [ -106.024815200578004, 44.993472292864404 ], [ -106.009676, 44.563981 ], [ -106.016504, 44.169729 ], [ -106.009201, 43.821579 ], [ -106.017366, 43.494969 ], [ -105.079797, 43.498445 ], [ -105.079281, 44.176182 ], [ -105.084467, 44.216633 ], [ -105.085451, 44.786801 ], [ -105.076600962208005, 45.000112278142097 ], [ -105.913149, 45.000238 ], [ -106.024815200578004, 44.993472292864404 ] ] ] } },
{ "type": "Feature", "properties": { "RC10": 0.73091181264018767, "WFIR_RISKR": "Relatively Low", "RC8": 0.25443984398650532, "RC4": 0.60885310300472706, "COUNTYFIPS": "043", "SOVI_SCORE": 79.45292621, "RC3": 0.039887485533241659, "NAME.y": "Washakie County, Wyoming", "RC2": -0.79786099711804748, "state_name": "WYOMING", "lag_sovi": -0.21022884028078359, "RC5": 0.66973927830729563, "RC6": -0.024775140431740155, "WFIR_EALT": 99250.905842599997, "NAME.x": "Washakie", "RC1": -0.10984706459151054, "SoVI_class": "-0.5 to 0.5 SD", "RC9": -0.25498856047147628, "GEOID": "56043", "RC7": 1.2374848422125648, "SoVI": 1.2340601756401774, "WFIR_RISKS": 66.730279898199996, "Ii": -0.026036159327425409, "P.Ii": 0.87215591872854037, "SOVI_RATNG": "Relatively High", "cluster": "Not Significant", "quadrant": "High Vulnerability & Low Wildfire Risk" }, "geometry": { "type": "Polygon", "coordinates": [ [ [ -108.550562, 44.168455 ], [ -108.550758, 44.079403 ], [ -108.490254, 44.07976 ], [ -108.489431, 43.991866 ], [ -108.427064, 43.992054 ], [ -108.429563, 43.903355 ], [ -108.30936, 43.903255 ], [ -108.309694, 43.846619 ], [ -108.174938, 43.818968 ], [ -107.956448, 43.818666 ], [ -107.956577, 43.733446 ], [ -107.715876, 43.733343 ], [ -107.716218, 43.645766 ], [ -107.595157, 43.646427 ], [ -107.595105, 43.501397 ], [ -107.534897, 43.501362 ], [ -107.110734, 43.500286 ], [ -107.127622, 43.815961 ], [ -107.128584, 44.165692 ], [ -107.146808, 44.165666 ], [ -107.722019, 44.167877 ], [ -108.550562, 44.168455 ] ] ] } },
{ "type": "Feature", "properties": { "RC10": -0.10971849939193352, "WFIR_RISKR": "Relatively Low", "RC8": 0.84260179302025362, "RC4": 0.36181212480081226, "COUNTYFIPS": "019", "SOVI_SCORE": 42.77989822, "RC3": 0.94690443172012884, "NAME.y": "Johnson County, Wyoming", "RC2": -0.6553292544823669, "state_name": "WYOMING", "lag_sovi": 0.37541864563118987, "RC5": 0.33003871102103649, "RC6": -0.095769960355890721, "WFIR_EALT": 958065.15070300002, "NAME.x": "Johnson", "RC1": 0.2867378902443371, "SoVI_class": "-0.5 to 0.5 SD", "RC9": -0.63844773038478853, "GEOID": "56019", "RC7": -0.44906757845023998, "SoVI": -0.41379127478939859, "WFIR_RISKS": 87.849872773499996, "Ii": -0.015589976338385166, "P.Ii": 0.77006249057613296, "SOVI_RATNG": "Relatively Moderate", "cluster": "Not Significant", "quadrant": "Low Vulnerability & High Wildfire Risk" }, "geometry": { "type": "Polygon", "coordinates": [ [ [ -107.369621, 44.559837 ], [ -107.202038, 44.446305 ], [ -107.145001, 44.324004 ], [ -107.146808, 44.165666 ], [ -107.128584, 44.165692 ], [ -107.127622, 43.815961 ], [ -107.110734, 43.500286 ], [ -107.11092, 43.492362 ], [ -106.516629, 43.491786 ], [ -106.078068, 43.494471 ], [ -106.017366, 43.494969 ], [ -106.009201, 43.821579 ], [ -106.016504, 44.169729 ], [ -106.009676, 44.563981 ], [ -106.663806, 44.556874 ], [ -107.369621, 44.559837 ] ] ] } },
{ "type": "Feature", "properties": { "RC10": -0.58281374965032129, "WFIR_RISKR": "Relatively Low", "RC8": 0.62143363528276618, "RC4": 0.22246727233741337, "COUNTYFIPS": "017", "SOVI_SCORE": 73.34605598, "RC3": 1.0303378894044033, "NAME.y": "Hot Springs County, Wyoming", "RC2": -0.37474224044523535, "state_name": "WYOMING", "lag_sovi": 0.90094897578818145, "RC5": 1.8941825515896316, "RC6": 0.40817008917849562, "WFIR_EALT": 97961.5971078, "NAME.x": "Hot Springs", "RC1": -0.13728934312315788, "SoVI_class": "-0.5 to 0.5 SD", "RC9": -0.66038143288971163, "GEOID": "56017", "RC7": -0.18784170610224232, "SoVI": -1.2802634513509057, "WFIR_RISKS": 66.444020356199999, "Ii": -0.11575715168237596, "P.Ii": 0.62209756544619177, "SOVI_RATNG": "Relatively High", "cluster": "Not Significant", "quadrant": "Low Vulnerability & Low Wildfire Risk" }, "geometry": { "type": "Polygon", "coordinates": [ [ [ -109.312949, 43.813293 ], [ -109.171448, 43.699198 ], [ -109.171638, 43.619764 ], [ -108.934141, 43.619163 ], [ -108.694672, 43.575755 ], [ -108.695072, 43.532255 ], [ -108.337861, 43.459765 ], [ -108.156285, 43.470628 ], [ -107.595137, 43.472279 ], [ -107.595105, 43.501397 ], [ -107.595157, 43.646427 ], [ -107.716218, 43.645766 ], [ -107.715876, 43.733343 ], [ -107.956577, 43.733446 ], [ -107.956448, 43.818666 ], [ -108.174938, 43.818968 ], [ -108.309694, 43.846619 ], [ -108.30936, 43.903255 ], [ -108.429563, 43.903355 ], [ -108.427064, 43.992054 ], [ -108.489431, 43.991866 ], [ -108.490254, 44.07976 ], [ -108.550758, 44.079403 ], [ -108.792277, 44.079616 ], [ -108.791779, 43.991053 ], [ -108.915985, 43.990854 ], [ -108.912783, 43.904754 ], [ -109.092878, 43.904474 ], [ -109.093603, 43.817619 ], [ -109.312949, 43.813293 ] ] ] } },
{ "type": "Feature", "properties": { "RC10": 0.023420822921785558, "WFIR_RISKR": "Relatively Low", "RC8": -0.47845064521576292, "RC4": 0.51244856528413296, "COUNTYFIPS": "023", "SOVI_SCORE": 29.13486005, "RC3": -0.2280184641264027, "NAME.y": "Lincoln County, Wyoming", "RC2": -0.82730747424177864, "state_name": "WYOMING", "lag_sovi": -1.6730497913268989, "RC5": -0.28204418992609953, "RC6": -0.24842198701270585, "WFIR_EALT": 644285.32597000001, "NAME.x": "Lincoln", "RC1": 0.16803711404853941, "SoVI_class": "-1 to -0.5 SD", "RC9": -0.79849410452669678, "GEOID": "56023", "RC7": 0.093524374149801234, "SoVI": -1.837291836890067, "WFIR_RISKS": 83.6195928753, "Ii": 0.30848588697595214, "P.Ii": 0.12790396608496496, "SOVI_RATNG": "Relatively Low", "cluster": "Not Significant", "quadrant": "Low Vulnerability & Low Wildfire Risk" }, "geometry": { "type": "Polygon", "coordinates": [ [ [ -111.044617, 43.31572 ], [ -111.043564, 42.722624 ], [ -111.047109, 42.142497 ], [ -111.045819273941007, 41.579844950485899 ], [ -110.048, 41.578015 ], [ -110.046408, 42.006948 ], [ -110.053708, 42.270744 ], [ -110.541634, 42.277491 ], [ -110.543329, 42.448536 ], [ -110.59013, 42.448494 ], [ -110.587993, 43.126147 ], [ -110.578656, 43.235224 ], [ -110.813993, 43.235178 ], [ -110.813996, 43.31394 ], [ -111.044617, 43.31572 ] ] ] } },
{ "type": "Feature", "properties": { "RC10": 1.1978552683460089, "WFIR_RISKR": "Relatively Moderate", "RC8": 1.316676935603208, "RC4": -0.056560815392521668, "COUNTYFIPS": "021", "SOVI_SCORE": 22.04198473, "RC3": 0.00061001665029652985, "NAME.y": "Laramie County, Wyoming", "RC2": -0.46705160530580325, "state_name": "WYOMING", "lag_sovi": 1.333444688504468, "RC5": -0.19314107329387356, "RC6": 0.84790940532849901, "WFIR_EALT": 2084939.1917099999, "NAME.x": "Laramie", "RC1": 0.72351214766236216, "SoVI_class": "0.5 to 1 SD", "RC9": 0.050761531216792874, "GEOID": "56021", "RC7": 0.61179683610668489, "SoVI": 2.9716264981846767, "WFIR_RISKS": 91.857506361299997, "Ii": 0.39766513544028542, "P.Ii": 0.33766062792493201, "SOVI_RATNG": "Relatively Low", "cluster": "Not Significant", "quadrant": "High Vulnerability & High Wildfire Risk" }, "geometry": { "type": "Polygon", "coordinates": [ [ [ -105.278236, 41.656655 ], [ -105.276859991921, 40.998173242790003 ], [ -104.855273, 40.998048 ], [ -104.053249, 41.001406 ], [ -104.05254, 41.564274 ], [ -104.652992, 41.565014 ], [ -104.653338, 41.653007 ], [ -105.278236, 41.656655 ] ] ] } },
{ "type": "Feature", "properties": { "RC10": 0.32887982873835925, "WFIR_RISKR": "Relatively Low", "RC8": 0.75005482057038697, "RC4": -2.0256102645203833, "COUNTYFIPS": "001", "SOVI_SCORE": 21.11959288, "RC3": -0.50885853402030745, "NAME.y": "Albany County, Wyoming", "RC2": -0.20266552454994269, "state_name": "WYOMING", "lag_sovi": 1.8455448066907665, "RC5": 0.90553761677060585, "RC6": 1.169219302984053, "WFIR_EALT": 782122.45641099999, "NAME.x": "Albany", "RC1": 1.155483072515243, "SoVI_class": "-0.5 to 0.5 SD", "RC9": -0.22987311813166436, "GEOID": "56001", "RC7": 1.9872019177782725, "SoVI": -0.79267226043707517, "WFIR_RISKS": 84.669211195900004, "Ii": -0.14681368599919642, "P.Ii": 0.14972975292343571, "SOVI_RATNG": "Relatively Low", "cluster": "Not Significant", "quadrant": "Low Vulnerability & High Wildfire Risk" }, "geometry": { "type": "Polygon", "coordinates": [ [ [ -106.073403, 42.433236 ], [ -106.074919, 42.086649 ], [ -106.068406, 41.395028 ], [ -106.322885, 41.395141 ], [ -106.321165, 40.999123 ], [ -105.724804, 40.99691 ], [ -105.276859991921, 40.998173242790003 ], [ -105.278236, 41.656655 ], [ -105.271746, 41.986095 ], [ -105.281139, 42.088888 ], [ -105.28391, 42.431402 ], [ -105.332638, 42.431106 ], [ -105.375541, 42.290139 ], [ -105.613865, 42.304455 ], [ -105.614656, 42.377436 ], [ -105.556042, 42.430583 ], [ -106.073403, 42.433236 ] ] ] } },
{ "type": "Feature", "properties": { "RC10": 2.4470539232325232, "WFIR_RISKR": "Relatively Low", "RC8": 1.9376982952411257, "RC4": 0.66471588794713887, "COUNTYFIPS": "031", "SOVI_SCORE": 83.8740458, "RC3": 0.99917893043098238, "NAME.y": "Platte County, Wyoming", "RC2": -0.22305742792908723, "state_name": "WYOMING", "lag_sovi": 0.44993203962182293, "RC5": -0.12669596425717222, "RC6": 0.39785020959367368, "WFIR_EALT": 660531.72007899999, "NAME.x": "Platte", "RC1": -0.38760325939726031, "SoVI_class": "> 1 SD", "RC9": -0.66686959039927296, "GEOID": "56031", "RC7": -0.5355596885642987, "SoVI": 5.5353097632072172, "WFIR_RISKS": 87.595419847299993, "Ii": 0.24994079017401905, "P.Ii": 0.7365785244636962, "SOVI_RATNG": "Very High", "cluster": "Not Significant", "quadrant": "High Vulnerability & High Wildfire Risk" }, "geometry": { "type": "Polygon", "coordinates": [ [ [ -104.892437, 42.608939 ], [ -105.286511, 42.605826 ], [ -105.28391, 42.431402 ], [ -105.281139, 42.088888 ], [ -105.271746, 41.986095 ], [ -105.278236, 41.656655 ], [ -104.653338, 41.653007 ], [ -104.655639, 42.609468 ], [ -104.892437, 42.608939 ] ] ] } },
{ "type": "Feature", "properties": { "RC10": -1.0438588572936169, "WFIR_RISKR": "Relatively Low", "RC8": 0.029978841554036583, "RC4": -0.51551688053873568, "COUNTYFIPS": "027", "SOVI_SCORE": 79.07124682, "RC3": 1.0347729298022561, "NAME.y": "Niobrara County, Wyoming", "RC2": -0.51015004579048528, "state_name": "WYOMING", "lag_sovi": 2.0054897936455003, "RC5": 2.3382464376473262, "RC6": -1.0063613353889012, "WFIR_EALT": 309536.010481, "NAME.x": "Niobrara", "RC1": -0.034153564232032793, "SoVI_class": "< -1 SD", "RC9": -0.17225345102693107, "GEOID": "56027", "RC7": -0.65596547752475398, "SoVI": -5.1434471496224257, "WFIR_RISKS": 80.8842239186, "Ii": -1.0351970515446811, "P.Ii": 0.20422337817736935, "SOVI_RATNG": "Relatively High", "cluster": "Not Significant", "quadrant": "Low Vulnerability & Low Wildfire Risk" }, "geometry": { "type": "Polygon", "coordinates": [ [ [ -104.899941, 43.49964 ], [ -104.89848, 42.78303 ], [ -104.892437, 42.608939 ], [ -104.655639, 42.609468 ], [ -104.052773275294996, 42.611766367052901 ], [ -104.054855942138005, 43.503324035365402 ], [ -104.899941, 43.49964 ] ] ] } },
{ "type": "Feature", "properties": { "RC10": 0.32752669579088178, "WFIR_RISKR": "Relatively Moderate", "RC8": 1.575135574620248, "RC4": 0.093242526608326715, "COUNTYFIPS": "033", "SOVI_SCORE": 32.44274809, "RC3": 0.51710506710980808, "NAME.y": "Sheridan County, Wyoming", "RC2": -0.78203830169461996, "state_name": "WYOMING", "lag_sovi": -0.73104740027766457, "RC5": 0.21381637321420921, "RC6": 0.45565192236141777, "WFIR_EALT": 2802051.9907800001, "NAME.x": "Sheridan", "RC1": 0.44878473855106332, "SoVI_class": "0.5 to 1 SD", "RC9": -0.13516062231701806, "GEOID": "56033", "RC7": 0.73331200439599686, "SoVI": 2.1221737551097686, "WFIR_RISKS": 93.893129771000005, "Ii": -0.15569503552055214, "P.Ii": 0.60606903512411203, "SOVI_RATNG": "Relatively Low", "cluster": "Not Significant", "quadrant": "High Vulnerability & High Wildfire Risk" }, "geometry": { "type": "Polygon", "coordinates": [ [ [ -107.911518281902005, 45.000672625471502 ], [ -107.865018, 44.873639 ], [ -107.741543, 44.714352 ], [ -107.671158, 44.680248 ], [ -107.549172, 44.678793 ], [ -107.528157, 44.634782 ], [ -107.392902, 44.595963 ], [ -107.369621, 44.559837 ], [ -106.663806, 44.556874 ], [ -106.009676, 44.563981 ], [ -106.024815200578004, 44.993472292864404 ], [ -106.570917843580006, 44.994859850319997 ], [ -107.911518281902005, 45.000672625471502 ] ] ] } },
{ "type": "Feature", "properties": { "RC10": 1.0375047225605003, "WFIR_RISKR": "Relatively Low", "RC8": 0.41918230122378952, "RC4": 0.8143915396930631, "COUNTYFIPS": "041", "SOVI_SCORE": 14.94910941, "RC3": -0.60770202124866779, "NAME.y": "Uinta County, Wyoming", "RC2": -0.75279648625482276, "state_name": "WYOMING", "lag_sovi": -1.4503870295474093, "RC5": -0.049488680203407479, "RC6": 0.51557930876024927, "WFIR_EALT": 738770.25678099995, "NAME.x": "Uinta", "RC1": -0.34183049117276798, "SoVI_class": "0.5 to 1 SD", "RC9": 0.38820640257798233, "GEOID": "56041", "RC7": 0.26932090009480081, "SoVI": 2.4750058387830705, "WFIR_RISKS": 83.492366412199999, "Ii": -0.36025367822201576, "P.Ii": 0.35879461544060903, "SOVI_RATNG": "Very Low", "cluster": "Not Significant", "quadrant": "High Vulnerability & Low Wildfire Risk" }, "geometry": { "type": "Polygon", "coordinates": [ [ [ -111.045819273941007, 41.579844950485899 ], [ -111.046723, 40.997959 ], [ -110.237848, 40.995427 ], [ -110.048482511407002, 40.997554638338599 ], [ -110.048, 41.578015 ], [ -111.045819273941007, 41.579844950485899 ] ] ] } }
]
}
