{
"type": "FeatureCollection",
"name": "county_rural",
"crs": { "type": "name", "properties": { "name": "urn:ogc:def:crs:OGC:1.3:CRS84" } },
"features": [
{ "type": "Feature", "properties": { "RC8": 0.72692345821557292, "RC4": -0.83392542168794492, "COUNTYFIPS": "045", "SOVI_SCORE": 21.31043257, "RC7": 0.32354838873715902, "RC3": 0.7043783523554582, "NAME.y": "Weston County, Wyoming", "RC2": -0.68183165886656349, "state_name": "WYOMING", "lag_sovi": -1.1378010085073551, "RC6": -1.1976609157992304, "WFIR_EALT": 710481.920866, "RC5": 0.58261353749080091, "NAME.x": "Weston", "RC1": -0.48148909793918343, "SoVI_class": "-0.5 to 0.5 SD", "RC9": -1.4076109388726139, "GEOID": "56045", "SoVI": -0.28132203458660665, "WFIR_RISKS": 83.746819338400002, "Ii": 0.03569240754035833, "P.Ii": 0.44526613478478722, "SOVI_RATNG": "Relatively Low", "cluster": "Not Significant", "quadrant": "High Vulnerability & Low Wildfire Risk", "WFIR_RISKR": "Relatively Low" }, "geometry": { "type": "Polygon", "coordinates": [ [ [ -105.079281, 44.176182 ], [ -105.079797, 43.498445 ], [ -104.899941, 43.49964 ], [ -104.054855942138005, 43.503324035365402 ], [ -104.054840270387004, 44.180381720120202 ], [ -105.079281, 44.176182 ] ] ] } },
{ "type": "Feature", "properties": { "RC8": -0.20781925595866613, "RC4": 0.47028254869535557, "COUNTYFIPS": "029", "SOVI_SCORE": 38.45419847, "RC7": -0.47776907801604651, "RC3": 0.48084120833318633, "NAME.y": "Park County, Wyoming", "RC2": -0.66746504299664755, "state_name": "WYOMING", "lag_sovi": -0.16278740369357778, "RC6": 0.10216130568134932, "WFIR_EALT": 555350.12050099997, "RC5": 0.23292264742905783, "NAME.x": "Park", "RC1": 0.35582500578675319, "SoVI_class": "-0.5 to 0.5 SD", "RC9": -0.015587444029564079, "GEOID": "56029", "SoVI": -0.4232850580073465, "WFIR_RISKS": 82.729007633600006, "Ii": 0.0076835073999601969, "P.Ii": 0.87533242375467246, "SOVI_RATNG": "Relatively Low", "cluster": "Not Significant", "quadrant": "High Vulnerability & Low Wildfire Risk", "WFIR_RISKR": "Relatively Low" }, "geometry": { "type": "Polygon", "coordinates": [ [ [ -108.621312796748995, 45.000250837426996 ], [ -109.082849, 44.999551 ], [ -109.103228, 45.005815 ], [ -110.183221, 44.996953 ], [ -110.704476, 44.992174 ], [ -111.054556, 45.000955 ], [ -111.053610326574002, 44.666266977001101 ], [ -110.667867, 44.666291 ], [ -110.667899, 44.582792 ], [ -110.375334, 44.583016 ], [ -110.276521, 44.516648 ], [ -110.294221, 44.42824 ], [ -110.150283, 44.290016 ], [ -110.115614, 44.190402 ], [ -110.053357, 44.132628 ], [ -110.053179, 44.008022 ], [ -109.993871, 43.949557 ], [ -109.8819, 43.949076 ], [ -109.7899, 43.803252 ], [ -109.672482, 43.868096 ], [ -109.641808, 43.922785 ], [ -109.566943, 43.95482 ], [ -109.442361, 43.930434 ], [ -109.312949, 43.813293 ], [ -109.093603, 43.817619 ], [ -109.092878, 43.904474 ], [ -108.912783, 43.904754 ], [ -108.915985, 43.990854 ], [ -108.791779, 43.991053 ], [ -108.792277, 44.079616 ], [ -108.550758, 44.079403 ], [ -108.550562, 44.168455 ], [ -108.573797, 44.168468 ], [ -108.57342, 44.520811 ], [ -108.592494, 44.52093 ], [ -108.592296, 44.871444 ], [ -108.621312796748995, 45.000250837426996 ] ] ] } },
{ "type": "Feature", "properties": { "RC8": -0.90068786546737334, "RC4": 0.39618435846138561, "COUNTYFIPS": "013", "SOVI_SCORE": 52.76717557, "RC7": -1.0740892607778281, "RC3": -0.34510728569562399, "NAME.y": "Fremont County, Wyoming", "RC2": 0.4061607998180411, "state_name": "WYOMING", "lag_sovi": -1.6725580843715775, "RC6": -1.2465307381224304, "WFIR_EALT": 1871360.9647, "RC5": 0.25225481757160217, "NAME.x": "Fremont", "RC1": 0.1246491464229027, "SoVI_class": "-0.5 to 0.5 SD", "RC9": 0.66011291359282753, "GEOID": "56013", "SoVI": -0.62054160240941714, "WFIR_RISKS": 92.557251908400005, "Ii": 0.11573318116565584, "P.Ii": 0.10975310679093891, "SOVI_RATNG": "Relatively Moderate", "cluster": "Not Significant", "quadrant": "High Vulnerability & High Wildfire Risk", "WFIR_RISKR": "Relatively Moderate" }, "geometry": { "type": "Polygon", "coordinates": [ [ [ -110.053179, 44.008022 ], [ -110.05157, 43.464783 ], [ -109.754717, 43.4632 ], [ -109.754462, 43.365905 ], [ -109.694942, 43.366152 ], [ -109.692716, 43.26503 ], [ -109.620634, 43.125602 ], [ -109.502407, 43.010511 ], [ -109.346779, 42.920164 ], [ -109.217449, 42.760048 ], [ -109.072851, 42.693514 ], [ -109.069477, 42.433477 ], [ -109.043864, 42.263684 ], [ -108.125032, 42.262516 ], [ -107.522722, 42.261756 ], [ -107.522923, 42.434356 ], [ -107.542025, 42.434356 ], [ -107.543526, 42.781358 ], [ -107.501425, 42.781458 ], [ -107.502327, 43.12806 ], [ -107.516728, 43.12796 ], [ -107.517031, 43.472659 ], [ -107.534897, 43.501362 ], [ -107.595105, 43.501397 ], [ -107.595137, 43.472279 ], [ -108.156285, 43.470628 ], [ -108.337861, 43.459765 ], [ -108.695072, 43.532255 ], [ -108.694672, 43.575755 ], [ -108.934141, 43.619163 ], [ -109.171638, 43.619764 ], [ -109.171448, 43.699198 ], [ -109.312949, 43.813293 ], [ -109.442361, 43.930434 ], [ -109.566943, 43.95482 ], [ -109.641808, 43.922785 ], [ -109.672482, 43.868096 ], [ -109.7899, 43.803252 ], [ -109.8819, 43.949076 ], [ -109.993871, 43.949557 ], [ -110.053179, 44.008022 ] ] ] } },
{ "type": "Feature", "properties": { "RC8": -0.12186906131408434, "RC4": 0.45174198035765367, "COUNTYFIPS": "003", "SOVI_SCORE": 52.60814249, "RC7": -0.37230071850862817, "RC3": -0.55786824101567301, "NAME.y": "Big Horn County, Wyoming", "RC2": -0.80741251856215279, "state_name": "WYOMING", "lag_sovi": -0.025041818438629515, "RC6": -0.25902476339062164, "WFIR_EALT": 80910.264190700007, "RC5": 0.78793650286272698, "NAME.x": "Big Horn", "RC1": -0.87848073886657574, "SoVI_class": "-0.5 to 0.5 SD", "RC9": 1.2324698719577254, "GEOID": "56003", "SoVI": 1.0732712675554708, "WFIR_RISKS": 61.354961832100003, "Ii": -0.0029969613671125567, "P.Ii": 0.98605517830658984, "SOVI_RATNG": "Relatively Moderate", "cluster": "Not Significant", "quadrant": "High Vulnerability & Low Wildfire Risk", "WFIR_RISKR": "Very Low" }, "geometry": { "type": "Polygon", "coordinates": [ [ [ -108.621312796748995, 45.000250837426996 ], [ -108.592296, 44.871444 ], [ -108.592494, 44.52093 ], [ -108.57342, 44.520811 ], [ -108.573797, 44.168468 ], [ -108.550562, 44.168455 ], [ -107.722019, 44.167877 ], [ -107.146808, 44.165666 ], [ -107.145001, 44.324004 ], [ -107.202038, 44.446305 ], [ -107.369621, 44.559837 ], [ -107.392902, 44.595963 ], [ -107.528157, 44.634782 ], [ -107.549172, 44.678793 ], [ -107.671158, 44.680248 ], [ -107.741543, 44.714352 ], [ -107.865018, 44.873639 ], [ -107.911518281902005, 45.000672625471502 ], [ -108.621312796748995, 45.000250837426996 ] ] ] } },
{ "type": "Feature", "properties": { "RC8": 0.08200764470886851, "RC4": -0.4610791690656012, "COUNTYFIPS": "007", "SOVI_SCORE": 47.83715013, "RC7": 0.45018788695101336, "RC3": 0.077961262313809537, "NAME.y": "Carbon County, Wyoming", "RC2": 0.13834994656598509, "state_name": "WYOMING", "lag_sovi": -1.3795003430753017, "RC6": -0.81534198296059268, "WFIR_EALT": 456652.05329700001, "RC5": 0.11055790730881083, "NAME.x": "Carbon", "RC1": -0.21744719326407719, "SoVI_class": "-0.5 to 0.5 SD", "RC9": -0.13911478037158598, "GEOID": "56007", "SoVI": -0.31724152705603964, "WFIR_RISKS": 81.902035623399996, "Ii": 0.048799752980413717, "P.Ii": 0.18738881840212857, "SOVI_RATNG": "Relatively Moderate", "cluster": "Not Significant", "quadrant": "High Vulnerability & Low Wildfire Risk", "WFIR_RISKR": "Relatively Low" }, "geometry": { "type": "Polygon", "coordinates": [ [ [ -107.522722, 42.261756 ], [ -107.503821, 42.087957 ], [ -107.50972, 41.657452 ], [ -107.929736, 41.659596 ], [ -107.917104, 41.398499 ], [ -107.918421, 41.002036 ], [ -106.857773, 41.002663 ], [ -106.321165, 40.999123 ], [ -106.322885, 41.395141 ], [ -106.068406, 41.395028 ], [ -106.074919, 42.086649 ], [ -106.073403, 42.433236 ], [ -106.075852, 42.433218 ], [ -106.624983, 42.430488 ], [ -107.522923, 42.434356 ], [ -107.522722, 42.261756 ] ] ] } },
{ "type": "Feature", "properties": { "RC8": -0.58622506903919469, "RC4": 0.16962883430830653, "COUNTYFIPS": "035", "SOVI_SCORE": 27.54452926, "RC7": 0.85594064254579827, "RC3": 0.11106198302102176, "NAME.y": "Sublette County, Wyoming", "RC2": -1.3640922038487493, "state_name": "WYOMING", "lag_sovi": -2.9851486027055061, "RC6": -1.9623622172065027, "WFIR_EALT": 1053270.8830800001, "RC5": -0.59101620819917766, "NAME.x": "Sublette", "RC1": 0.20609950078345304, "SoVI_class": "< -1 SD", "RC9": -0.48646249470863423, "GEOID": "56035", "SoVI": -6.1107651876187949, "WFIR_RISKS": 87.722646310399995, "Ii": 2.0340767251270462, "P.Ii": 0.0422885376120824, "SOVI_RATNG": "Relatively Low", "cluster": "Low-Low", "quadrant": "Low Vulnerability & High Wildfire Risk", "WFIR_RISKR": "Relatively Low" }, "geometry": { "type": "Polygon", "coordinates": [ [ [ -110.578656, 43.235224 ], [ -110.587993, 43.126147 ], [ -110.59013, 42.448494 ], [ -110.543329, 42.448536 ], [ -110.541634, 42.277491 ], [ -110.053708, 42.270744 ], [ -109.500686, 42.263559 ], [ -109.043864, 42.263684 ], [ -109.069477, 42.433477 ], [ -109.072851, 42.693514 ], [ -109.217449, 42.760048 ], [ -109.346779, 42.920164 ], [ -109.502407, 43.010511 ], [ -109.620634, 43.125602 ], [ -109.692716, 43.26503 ], [ -109.694942, 43.366152 ], [ -109.754462, 43.365905 ], [ -109.754717, 43.4632 ], [ -110.05157, 43.464783 ], [ -110.05731, 43.377768 ], [ -110.344218, 43.377918 ], [ -110.343959, 43.291165 ], [ -110.57838, 43.29164 ], [ -110.578656, 43.235224 ] ] ] } },
{ "type": "Feature", "properties": { "RC8": -0.31036959578133316, "RC4": 0.16746656639895299, "COUNTYFIPS": "025", "SOVI_SCORE": 20.51526718, "RC7": -0.26120534206681156, "RC3": -0.28460702389520154, "NAME.y": "Natrona County, Wyoming", "RC2": -0.14143027595739005, "state_name": "WYOMING", "lag_sovi": -0.50280771201595098, "RC6": -0.88870293850962168, "WFIR_EALT": 2657673.8024300002, "RC5": 0.30820827907441362, "NAME.x": "Natrona", "RC1": 0.64743243312742083, "SoVI_class": "-1 to -0.5 SD", "RC9": 0.11940332504236142, "GEOID": "56025", "SoVI": -1.7511918874863337, "WFIR_RISKS": 93.034351145000002, "Ii": 0.098184163863356919, "P.Ii": 0.70215317695974466, "SOVI_RATNG": "Relatively Low", "cluster": "Not Significant", "quadrant": "Low Vulnerability & High Wildfire Risk", "WFIR_RISKR": "Relatively Moderate" }, "geometry": { "type": "Polygon", "coordinates": [ [ [ -107.534897, 43.501362 ], [ -107.517031, 43.472659 ], [ -107.516728, 43.12796 ], [ -107.502327, 43.12806 ], [ -107.501425, 42.781458 ], [ -107.543526, 42.781358 ], [ -107.542025, 42.434356 ], [ -107.522923, 42.434356 ], [ -106.624983, 42.430488 ], [ -106.075852, 42.433218 ], [ -106.072669, 42.778165 ], [ -106.078068, 43.494471 ], [ -106.516629, 43.491786 ], [ -107.11092, 43.492362 ], [ -107.110734, 43.500286 ], [ -107.534897, 43.501362 ] ] ] } },
{ "type": "Feature", "properties": { "RC8": 0.38003050610818345, "RC4": 0.58725060654588168, "COUNTYFIPS": "009", "SOVI_SCORE": 42.43002545, "RC7": 0.5328734314118686, "RC3": -0.016738862166852823, "NAME.y": "Converse County, Wyoming", "RC2": -0.2874707697733056, "state_name": "WYOMING", "lag_sovi": -0.0063140576584915786, "RC6": -1.2722829402878344, "WFIR_EALT": 1525151.6817099999, "RC5": 0.64218614027629528, "NAME.x": "Converse", "RC1": 0.24923087883649228, "SoVI_class": "-1 to -0.5 SD", "RC9": -0.079973724273680991, "GEOID": "56009", "SoVI": -2.0036045669114375, "WFIR_RISKS": 91.094147582700003, "Ii": 0.0014106729395409281, "P.Ii": 0.98972982933704923, "SOVI_RATNG": "Relatively Moderate", "cluster": "Not Significant", "quadrant": "Low Vulnerability & High Wildfire Risk", "WFIR_RISKR": "Relatively Moderate" }, "geometry": { "type": "Polygon", "coordinates": [ [ [ -106.078068, 43.494471 ], [ -106.072669, 42.778165 ], [ -106.075852, 42.433218 ], [ -106.073403, 42.433236 ], [ -105.556042, 42.430583 ], [ -105.614656, 42.377436 ], [ -105.613865, 42.304455 ], [ -105.375541, 42.290139 ], [ -105.332638, 42.431106 ], [ -105.28391, 42.431402 ], [ -105.286511, 42.605826 ], [ -104.892437, 42.608939 ], [ -104.89848, 42.78303 ], [ -104.899941, 43.49964 ], [ -105.079797, 43.498445 ], [ -106.017366, 43.494969 ], [ -106.078068, 43.494471 ] ] ] } },
{ "type": "Feature", "properties": { "RC8": -0.73512158509626435, "RC4": 0.18883755537400579, "COUNTYFIPS": "037", "SOVI_SCORE": 19.33842239, "RC7": 0.45029904241191854, "RC3": -0.51550815747797651, "NAME.y": "Sweetwater County, Wyoming", "RC2": 0.068673053847733007, "state_name": "WYOMING", "lag_sovi": -2.9785878262670717, "RC6": -1.1983747656054533, "WFIR_EALT": 151179.71090599999, "RC5": 0.4323060855396148, "NAME.x": "Sweetwater", "RC1": 0.1622350809269987, "SoVI_class": "< -1 SD", "RC9": -0.35634648984973549, "GEOID": "56037", "SoVI": -3.1057435373550049, "WFIR_RISKS": 66.157760814200003, "Ii": 1.0315298014350729, "P.Ii": 0.004233264880404884, "SOVI_RATNG": "Very Low", "cluster": "Low-Low", "quadrant": "Low Vulnerability & Low Wildfire Risk", "WFIR_RISKR": "Relatively Low" }, "geometry": { "type": "Polygon", "coordinates": [ [ [ -110.053708, 42.270744 ], [ -110.046408, 42.006948 ], [ -110.048, 41.578015 ], [ -110.048482511407002, 40.997554638338599 ], [ -109.534926, 40.998143 ], [ -108.884138, 41.000094 ], [ -107.918421, 41.002036 ], [ -107.917104, 41.398499 ], [ -107.929736, 41.659596 ], [ -107.50972, 41.657452 ], [ -107.503821, 42.087957 ], [ -107.522722, 42.261756 ], [ -108.125032, 42.262516 ], [ -109.043864, 42.263684 ], [ -109.500686, 42.263559 ], [ -110.053708, 42.270744 ] ] ] } },
{ "type": "Feature", "properties": { "RC8": 1.5348535992940782, "RC4": -0.77888624830439812, "COUNTYFIPS": "015", "SOVI_SCORE": 35.52798982, "RC7": -0.90885071716259125, "RC3": 0.64572440556343724, "NAME.y": "Goshen County, Wyoming", "RC2": -0.24179243275606296, "state_name": "WYOMING", "lag_sovi": 0.70860279661591896, "RC6": -0.87253548807596137, "WFIR_EALT": 217716.96826699999, "RC5": 0.70219968274971978, "NAME.x": "Goshen", "RC1": -0.22120826127968124, "SoVI_class": "> 1 SD", "RC9": 0.37418138737037809, "GEOID": "56015", "SoVI": 4.0515763808922598, "WFIR_RISKS": 72.614503816799996, "Ii": 0.32013464187742691, "P.Ii": 0.67423210844020465, "SOVI_RATNG": "Relatively Low", "cluster": "Not Significant", "quadrant": "High Vulnerability & Low Wildfire Risk", "WFIR_RISKR": "Relatively Low" }, "geometry": { "type": "Polygon", "coordinates": [ [ [ -104.655639, 42.609468 ], [ -104.653338, 41.653007 ], [ -104.652992, 41.565014 ], [ -104.05254, 41.564274 ], [ -104.0526, 42.124963 ], [ -104.052773275294996, 42.611766367052901 ], [ -104.655639, 42.609468 ] ] ] } },
{ "type": "Feature", "properties": { "RC8": 0.11329488268084828, "RC4": -0.51260614778885571, "COUNTYFIPS": "039", "SOVI_SCORE": 10.62340967, "RC7": 1.9177720069971225, "RC3": 0.12589059259099844, "NAME.y": "Teton County, Wyoming", "RC2": -0.40264848015034749, "state_name": "WYOMING", "lag_sovi": -2.2321484843677566, "RC6": 0.59835594482564636, "WFIR_EALT": 2087781.41848, "RC5": -0.57692355520284311, "NAME.x": "Teton", "RC1": 3.7235752053347921, "SoVI_class": "< -1 SD", "RC9": -0.25796081200610643, "GEOID": "56039", "SoVI": -5.5287324918048633, "WFIR_RISKS": 90.648854961799998, "Ii": 1.3761140755666732, "P.Ii": 0.030505811075504138, "SOVI_RATNG": "Very Low", "cluster": "Low-Low", "quadrant": "Low Vulnerability & High Wildfire Risk", "WFIR_RISKR": "Relatively Moderate" }, "geometry": { "type": "Polygon", "coordinates": [ [ [ -111.053610326574002, 44.666266977001101 ], [ -111.049077, 44.020072 ], [ -111.044617, 43.31572 ], [ -110.813996, 43.31394 ], [ -110.813993, 43.235178 ], [ -110.578656, 43.235224 ], [ -110.57838, 43.29164 ], [ -110.343959, 43.291165 ], [ -110.344218, 43.377918 ], [ -110.05731, 43.377768 ], [ -110.05157, 43.464783 ], [ -110.053179, 44.008022 ], [ -110.053357, 44.132628 ], [ -110.115614, 44.190402 ], [ -110.150283, 44.290016 ], [ -110.294221, 44.42824 ], [ -110.276521, 44.516648 ], [ -110.375334, 44.583016 ], [ -110.667899, 44.582792 ], [ -110.667867, 44.666291 ], [ -111.053610326574002, 44.666266977001101 ] ] ] } },
{ "type": "Feature", "properties": { "RC8": 0.6975972186529793, "RC4": 0.64022036738593824, "COUNTYFIPS": "011", "SOVI_SCORE": 33.55597964, "RC7": 0.59248433850559834, "RC3": 0.16526887130867018, "NAME.y": "Crook County, Wyoming", "RC2": -1.103895990310076, "state_name": "WYOMING", "lag_sovi": 0.20559183061372557, "RC6": -0.52135555670017331, "WFIR_EALT": 700511.37608700001, "RC5": 0.12448170280507984, "NAME.x": "Crook", "RC1": -0.52258014385840523, "SoVI_class": "-1 to -0.5 SD", "RC9": -0.76930734011865454, "GEOID": "56011", "SoVI": -2.1173356563953059, "WFIR_RISKS": 85.050890585199994, "Ii": -0.048540175685630592, "P.Ii": 0.894308724308152, "SOVI_RATNG": "Relatively Low", "cluster": "Not Significant", "quadrant": "Low Vulnerability & High Wildfire Risk", "WFIR_RISKR": "Relatively Low" }, "geometry": { "type": "Polygon", "coordinates": [ [ [ -105.076600962208005, 45.000112278142097 ], [ -105.085451, 44.786801 ], [ -105.084467, 44.216633 ], [ -105.079281, 44.176182 ], [ -104.054840270387004, 44.180381720120202 ], [ -104.057879, 44.997605 ], [ -105.076600962208005, 45.000112278142097 ] ] ] } },
{ "type": "Feature", "properties": { "RC8": -0.56959080512120586, "RC4": 0.235653345181041, "COUNTYFIPS": "005", "SOVI_SCORE": 10.62340967, "RC7": 0.97853930077725604, "RC3": -1.0471986730468976, "NAME.y": "Campbell County, Wyoming", "RC2": -0.57510543864601271, "state_name": "WYOMING", "lag_sovi": -0.30467774439842454, "RC6": -1.2170946946343226, "WFIR_EALT": 2919259.8083600001, "RC5": -0.1910944293982374, "NAME.x": "Campbell", "RC1": -0.08729878934718785, "SoVI_class": "< -1 SD", "RC9": 0.49195359853312259, "GEOID": "56005", "SoVI": -4.2350242989246629, "WFIR_RISKS": 92.907124681900001, "Ii": 0.1438806586881575, "P.Ii": 0.79144421428409362, "SOVI_RATNG": "Very Low", "cluster": "Not Significant", "quadrant": "Low Vulnerability & High Wildfire Risk", "WFIR_RISKR": "Relatively Moderate" }, "geometry": { "type": "Polygon", "coordinates": [ [ [ -106.024815200578004, 44.993472292864404 ], [ -106.009676, 44.563981 ], [ -106.016504, 44.169729 ], [ -106.009201, 43.821579 ], [ -106.017366, 43.494969 ], [ -105.079797, 43.498445 ], [ -105.079281, 44.176182 ], [ -105.084467, 44.216633 ], [ -105.085451, 44.786801 ], [ -105.076600962208005, 45.000112278142097 ], [ -105.913149, 45.000238 ], [ -106.024815200578004, 44.993472292864404 ] ] ] } },
{ "type": "Feature", "properties": { "RC8": -0.19335402970597304, "RC4": 0.5381797237641921, "COUNTYFIPS": "043", "SOVI_SCORE": 79.45292621, "RC7": -0.37072279822356002, "RC3": 0.11087747872268013, "NAME.y": "Washakie County, Wyoming", "RC2": -0.59435591556509537, "state_name": "WYOMING", "lag_sovi": 0.39037743270212633, "RC6": -1.0320491981802788, "WFIR_EALT": 99250.905842599997, "RC5": 0.85185147562417995, "NAME.x": "Washakie", "RC1": -0.039506876944181438, "SoVI_class": "-0.5 to 0.5 SD", "RC9": 1.0948963747471969, "GEOID": "56043", "SoVI": 0.1099161370462591, "WFIR_RISKS": 66.730279898199996, "Ii": 0.0047846694481490865, "P.Ii": 0.74748214350640607, "SOVI_RATNG": "Relatively High", "cluster": "Not Significant", "quadrant": "High Vulnerability & Low Wildfire Risk", "WFIR_RISKR": "Relatively Low" }, "geometry": { "type": "Polygon", "coordinates": [ [ [ -108.550562, 44.168455 ], [ -108.550758, 44.079403 ], [ -108.490254, 44.07976 ], [ -108.489431, 43.991866 ], [ -108.427064, 43.992054 ], [ -108.429563, 43.903355 ], [ -108.30936, 43.903255 ], [ -108.309694, 43.846619 ], [ -108.174938, 43.818968 ], [ -107.956448, 43.818666 ], [ -107.956577, 43.733446 ], [ -107.715876, 43.733343 ], [ -107.716218, 43.645766 ], [ -107.595157, 43.646427 ], [ -107.595105, 43.501397 ], [ -107.534897, 43.501362 ], [ -107.110734, 43.500286 ], [ -107.127622, 43.815961 ], [ -107.128584, 44.165692 ], [ -107.146808, 44.165666 ], [ -107.722019, 44.167877 ], [ -108.550562, 44.168455 ] ] ] } },
{ "type": "Feature", "properties": { "RC8": 0.77355038863033188, "RC4": 0.29194522840483766, "COUNTYFIPS": "019", "SOVI_SCORE": 42.77989822, "RC7": -0.41711058848754295, "RC3": 1.0505064529416683, "NAME.y": "Johnson County, Wyoming", "RC2": -0.86330586567492129, "state_name": "WYOMING", "lag_sovi": -0.8876461132377601, "RC6": -0.50523045229905494, "WFIR_EALT": 958065.15070300002, "RC5": 0.32145545593151459, "NAME.x": "Johnson", "RC1": 0.14316166527916763, "SoVI_class": "-0.5 to 0.5 SD", "RC9": -0.44154667508219575, "GEOID": "56019", "SoVI": 0.31743299925088048, "WFIR_RISKS": 87.849872773499996, "Ii": -0.031419386987128622, "P.Ii": 0.46513136472837674, "SOVI_RATNG": "Relatively Moderate", "cluster": "Not Significant", "quadrant": "High Vulnerability & High Wildfire Risk", "WFIR_RISKR": "Relatively Low" }, "geometry": { "type": "Polygon", "coordinates": [ [ [ -107.369621, 44.559837 ], [ -107.202038, 44.446305 ], [ -107.145001, 44.324004 ], [ -107.146808, 44.165666 ], [ -107.128584, 44.165692 ], [ -107.127622, 43.815961 ], [ -107.110734, 43.500286 ], [ -107.11092, 43.492362 ], [ -106.516629, 43.491786 ], [ -106.078068, 43.494471 ], [ -106.017366, 43.494969 ], [ -106.009201, 43.821579 ], [ -106.016504, 44.169729 ], [ -106.009676, 44.563981 ], [ -106.663806, 44.556874 ], [ -107.369621, 44.559837 ] ] ] } },
{ "type": "Feature", "properties": { "RC8": 0.59559264017943547, "RC4": 0.17794550373247306, "COUNTYFIPS": "017", "SOVI_SCORE": 73.34605598, "RC7": -0.94596635941163043, "RC3": 1.0148982370919355, "NAME.y": "Hot Springs County, Wyoming", "RC2": -0.36494016826464221, "state_name": "WYOMING", "lag_sovi": -0.31130350779016813, "RC6": 0.097508462733539442, "WFIR_EALT": 97961.5971078, "RC5": 1.7602062142964556, "NAME.x": "Hot Springs", "RC1": -0.10376133657202852, "SoVI_class": "> 1 SD", "RC9": -0.22846870097840585, "GEOID": "56017", "SoVI": 3.7465788773095041, "WFIR_RISKS": 66.444020356199999, "Ii": -0.13005428739207883, "P.Ii": 0.86256479263355801, "SOVI_RATNG": "Relatively High", "cluster": "Not Significant", "quadrant": "High Vulnerability & Low Wildfire Risk", "WFIR_RISKR": "Relatively Low" }, "geometry": { "type": "Polygon", "coordinates": [ [ [ -109.312949, 43.813293 ], [ -109.171448, 43.699198 ], [ -109.171638, 43.619764 ], [ -108.934141, 43.619163 ], [ -108.694672, 43.575755 ], [ -108.695072, 43.532255 ], [ -108.337861, 43.459765 ], [ -108.156285, 43.470628 ], [ -107.595137, 43.472279 ], [ -107.595105, 43.501397 ], [ -107.595157, 43.646427 ], [ -107.716218, 43.645766 ], [ -107.715876, 43.733343 ], [ -107.956577, 43.733446 ], [ -107.956448, 43.818666 ], [ -108.174938, 43.818968 ], [ -108.309694, 43.846619 ], [ -108.30936, 43.903255 ], [ -108.429563, 43.903355 ], [ -108.427064, 43.992054 ], [ -108.489431, 43.991866 ], [ -108.490254, 44.07976 ], [ -108.550758, 44.079403 ], [ -108.792277, 44.079616 ], [ -108.791779, 43.991053 ], [ -108.915985, 43.990854 ], [ -108.912783, 43.904754 ], [ -109.092878, 43.904474 ], [ -109.093603, 43.817619 ], [ -109.312949, 43.813293 ] ] ] } },
{ "type": "Feature", "properties": { "RC8": -0.40201377742710098, "RC4": 0.47228802160580313, "COUNTYFIPS": "023", "SOVI_SCORE": 29.13486005, "RC7": 0.012877987971986606, "RC3": -0.20207184792511279, "NAME.y": "Lincoln County, Wyoming", "RC2": -1.0007579787009475, "state_name": "WYOMING", "lag_sovi": -3.3220876468424727, "RC6": -0.46782350371041082, "WFIR_EALT": 644285.32597000001, "RC5": -0.2798094477623147, "NAME.x": "Lincoln", "RC1": 0.04237330992161141, "SoVI_class": "-1 to -0.5 SD", "RC9": 0.19443909577254875, "GEOID": "56023", "SoVI": -2.6855767792527394, "WFIR_RISKS": 83.6195928753, "Ii": 0.99484274820782082, "P.Ii": 0.0014431544948976351, "SOVI_RATNG": "Relatively Low", "cluster": "Low-Low", "quadrant": "Low Vulnerability & Low Wildfire Risk", "WFIR_RISKR": "Relatively Low" }, "geometry": { "type": "Polygon", "coordinates": [ [ [ -111.044617, 43.31572 ], [ -111.043564, 42.722624 ], [ -111.047109, 42.142497 ], [ -111.045819273941007, 41.579844950485899 ], [ -110.048, 41.578015 ], [ -110.046408, 42.006948 ], [ -110.053708, 42.270744 ], [ -110.541634, 42.277491 ], [ -110.543329, 42.448536 ], [ -110.59013, 42.448494 ], [ -110.587993, 43.126147 ], [ -110.578656, 43.235224 ], [ -110.813993, 43.235178 ], [ -110.813996, 43.31394 ], [ -111.044617, 43.31572 ] ] ] } },
{ "type": "Feature", "properties": { "RC8": 0.75002860134220906, "RC4": -0.0035133748673025684, "COUNTYFIPS": "021", "SOVI_SCORE": 22.04198473, "RC7": -0.38140152427952762, "RC3": -0.051357655522126386, "NAME.y": "Laramie County, Wyoming", "RC2": -0.1092388549897316, "state_name": "WYOMING", "lag_sovi": 0.78223842303522884, "RC6": -1.0654031439244518, "WFIR_EALT": 2084939.1917099999, "RC5": 0.047571903002128463, "NAME.x": "Laramie", "RC1": 0.9621806534647992, "SoVI_class": "-0.5 to 0.5 SD", "RC9": 0.36697866695555048, "GEOID": "56021", "SoVI": -0.6386862374543909, "WFIR_RISKS": 91.857506361299997, "Ii": -0.055709913163244473, "P.Ii": 0.55814018272330934, "SOVI_RATNG": "Relatively Low", "cluster": "Not Significant", "quadrant": "Low Vulnerability & High Wildfire Risk", "WFIR_RISKR": "Relatively Moderate" }, "geometry": { "type": "Polygon", "coordinates": [ [ [ -105.278236, 41.656655 ], [ -105.276859991921, 40.998173242790003 ], [ -104.855273, 40.998048 ], [ -104.053249, 41.001406 ], [ -104.05254, 41.564274 ], [ -104.652992, 41.565014 ], [ -104.653338, 41.653007 ], [ -105.278236, 41.656655 ] ] ] } },
{ "type": "Feature", "properties": { "RC8": 0.20189249108414736, "RC4": -2.0017205442817683, "COUNTYFIPS": "001", "SOVI_SCORE": 21.11959288, "RC7": -0.87123640301045191, "RC3": -0.60450015366135912, "NAME.y": "Albany County, Wyoming", "RC2": 0.25190095730032713, "state_name": "WYOMING", "lag_sovi": -1.0955895319355593, "RC6": -0.44380912260179506, "WFIR_EALT": 782122.45641099999, "RC5": 1.0340229893589636, "NAME.x": "Albany", "RC1": 1.5196111385116149, "SoVI_class": "> 1 SD", "RC9": 1.6594866899717935, "GEOID": "56001", "SoVI": 3.4523396602326826, "WFIR_RISKS": 84.669211195900004, "Ii": -0.42176173058522498, "P.Ii": 0.37098107031289423, "SOVI_RATNG": "Relatively Low", "cluster": "Not Significant", "quadrant": "High Vulnerability & High Wildfire Risk", "WFIR_RISKR": "Relatively Low" }, "geometry": { "type": "Polygon", "coordinates": [ [ [ -106.073403, 42.433236 ], [ -106.074919, 42.086649 ], [ -106.068406, 41.395028 ], [ -106.322885, 41.395141 ], [ -106.321165, 40.999123 ], [ -105.724804, 40.99691 ], [ -105.276859991921, 40.998173242790003 ], [ -105.278236, 41.656655 ], [ -105.271746, 41.986095 ], [ -105.281139, 42.088888 ], [ -105.28391, 42.431402 ], [ -105.332638, 42.431106 ], [ -105.375541, 42.290139 ], [ -105.613865, 42.304455 ], [ -105.614656, 42.377436 ], [ -105.556042, 42.430583 ], [ -106.073403, 42.433236 ] ] ] } },
{ "type": "Feature", "properties": { "RC8": 1.2362720844981607, "RC4": 0.67511359848806296, "COUNTYFIPS": "031", "SOVI_SCORE": 83.8740458, "RC7": -0.39473911149193669, "RC3": 0.91401329508704798, "NAME.y": "Platte County, Wyoming", "RC2": 0.028599901480480364, "state_name": "WYOMING", "lag_sovi": 1.73327714499222, "RC6": -2.4727637795342754, "WFIR_EALT": 660531.72007899999, "RC5": 0.22492306222688008, "NAME.x": "Platte", "RC1": -0.2475322719788996, "SoVI_class": "-0.5 to 0.5 SD", "RC9": -0.9384682096409056, "GEOID": "56031", "SoVI": -1.0402658608998383, "WFIR_RISKS": 87.595419847299993, "Ii": -0.20105650818934531, "P.Ii": 0.1940259858696593, "SOVI_RATNG": "Very High", "cluster": "Not Significant", "quadrant": "Low Vulnerability & High Wildfire Risk", "WFIR_RISKR": "Relatively Low" }, "geometry": { "type": "Polygon", "coordinates": [ [ [ -104.892437, 42.608939 ], [ -105.286511, 42.605826 ], [ -105.28391, 42.431402 ], [ -105.281139, 42.088888 ], [ -105.271746, 41.986095 ], [ -105.278236, 41.656655 ], [ -104.653338, 41.653007 ], [ -104.655639, 42.609468 ], [ -104.892437, 42.608939 ] ] ] } },
{ "type": "Feature", "properties": { "RC8": 0.32024190731163688, "RC4": -0.52775399710876125, "COUNTYFIPS": "027", "SOVI_SCORE": 79.07124682, "RC7": 0.17250974175029796, "RC3": 1.0672215924858577, "NAME.y": "Niobrara County, Wyoming", "RC2": -0.78665553094417895, "state_name": "WYOMING", "lag_sovi": 0.18159597962359431, "RC6": 0.93655214428125944, "WFIR_EALT": 309536.010481, "RC5": 2.2627562151953549, "NAME.x": "Niobrara", "RC1": -0.2094180849808264, "SoVI_class": "> 1 SD", "RC9": -0.56001818046723362, "GEOID": "56027", "SoVI": 3.8047604882019859, "WFIR_RISKS": 80.8842239186, "Ii": 0.077044090266976145, "P.Ii": 0.89561158081068937, "SOVI_RATNG": "Relatively High", "cluster": "Not Significant", "quadrant": "High Vulnerability & Low Wildfire Risk", "WFIR_RISKR": "Relatively Low" }, "geometry": { "type": "Polygon", "coordinates": [ [ [ -104.899941, 43.49964 ], [ -104.89848, 42.78303 ], [ -104.892437, 42.608939 ], [ -104.655639, 42.609468 ], [ -104.052773275294996, 42.611766367052901 ], [ -104.054855942138005, 43.503324035365402 ], [ -104.899941, 43.49964 ] ] ] } },
{ "type": "Feature", "properties": { "RC8": 1.1157186672759785, "RC4": 0.091317998842583639, "COUNTYFIPS": "033", "SOVI_SCORE": 32.44274809, "RC7": -0.73905863394311766, "RC3": 0.50372363537320886, "NAME.y": "Sheridan County, Wyoming", "RC2": -0.58638482825662008, "state_name": "WYOMING", "lag_sovi": -0.73710110191849476, "RC6": -0.57601311108472752, "WFIR_EALT": 2802051.9907800001, "RC5": 0.41514132969922146, "NAME.x": "Sheridan", "RC1": 0.62528308453695336, "SoVI_class": "-0.5 to 0.5 SD", "RC9": 0.58611342572350156, "GEOID": "56033", "SoVI": 1.4807566692941434, "WFIR_RISKS": 93.893129771000005, "Ii": -0.12170727448546605, "P.Ii": 0.58255693986144508, "SOVI_RATNG": "Relatively Low", "cluster": "Not Significant", "quadrant": "High Vulnerability & High Wildfire Risk", "WFIR_RISKR": "Relatively Moderate" }, "geometry": { "type": "Polygon", "coordinates": [ [ [ -107.911518281902005, 45.000672625471502 ], [ -107.865018, 44.873639 ], [ -107.741543, 44.714352 ], [ -107.671158, 44.680248 ], [ -107.549172, 44.678793 ], [ -107.528157, 44.634782 ], [ -107.392902, 44.595963 ], [ -107.369621, 44.559837 ], [ -106.663806, 44.556874 ], [ -106.009676, 44.563981 ], [ -106.024815200578004, 44.993472292864404 ], [ -106.570917843580006, 44.994859850319997 ], [ -107.911518281902005, 45.000672625471502 ] ] ] } },
{ "type": "Feature", "properties": { "RC8": -0.14301440119908021, "RC4": 0.88345591992908001, "COUNTYFIPS": "041", "SOVI_SCORE": 14.94910941, "RC7": -0.25493878494853495, "RC3": -0.66274823728919341, "NAME.y": "Uinta County, Wyoming", "RC2": -0.33315251049742733, "state_name": "WYOMING", "lag_sovi": -3.8887967884366148, "RC6": -0.58880799462311539, "WFIR_EALT": 738770.25678099995, "RC5": 0.1810078305635496, "NAME.x": "Uinta", "RC1": -0.11153793050402798, "SoVI_class": "-1 to -0.5 SD", "RC9": 0.086732724416278231, "GEOID": "56041", "SoVI": -1.9769617931055057, "WFIR_RISKS": 83.492366412199999, "Ii": 0.85727331381002125, "P.Ii": 0.0089659397543034886, "SOVI_RATNG": "Very Low", "cluster": "Low-Low", "quadrant": "Low Vulnerability & Low Wildfire Risk", "WFIR_RISKR": "Relatively Low" }, "geometry": { "type": "Polygon", "coordinates": [ [ [ -111.045819273941007, 41.579844950485899 ], [ -111.046723, 40.997959 ], [ -110.237848, 40.995427 ], [ -110.048482511407002, 40.997554638338599 ], [ -110.048, 41.578015 ], [ -111.045819273941007, 41.579844950485899 ] ] ] } }
]
}
